{
"type": "FeatureCollection",
"name": "labels_manual",
"crs": { "type": "name", "properties": { "name": "urn:ogc:def:crs:OGC:1.3:CRS84" } },
"features": [
{ "type": "Feature", "properties": { "verdict": "свалка", "candidate_id": "C00034", "area_m2": 5596, "источник": "прошёл отсев" }, "geometry": { "type": "Point", "coordinates": [ 71.517207, 51.165169 ] } },
{ "type": "Feature", "properties": { "verdict": "свалка", "candidate_id": "C00106", "area_m2": 2103, "источник": "прошёл отсев" }, "geometry": { "type": "Point", "coordinates": [ 71.548502, 51.161074 ] } },
{ "type": "Feature", "properties": { "verdict": "свалка", "candidate_id": "C00114", "area_m2": 1999, "источник": "прошёл отсев" }, "geometry": { "type": "Point", "coordinates": [ 71.482847, 51.207637 ] } },
{ "type": "Feature", "properties": { "verdict": "свалка", "candidate_id": "C00196", "area_m2": 1099, "источник": "прошёл отсев" }, "geometry": { "type": "Point", "coordinates": [ 71.515794, 51.164571 ] } },
{ "type": "Feature", "properties": { "verdict": "не свалка", "candidate_id": "C00021", "area_m2": 7399, "источник": "прошёл отсев" }, "geometry": { "type": "Point", "coordinates": [ 71.523879, 51.159396 ] } },
{ "type": "Feature", "properties": { "verdict": "не свалка", "candidate_id": "C00050", "area_m2": 4200, "источник": "прошёл отсев" }, "geometry": { "type": "Point", "coordinates": [ 71.647608, 51.231858 ] } },
{ "type": "Feature", "properties": { "verdict": "не свалка", "candidate_id": "C00060", "area_m2": 3699, "источник": "прошёл отсев" }, "geometry": { "type": "Point", "coordinates": [ 71.651023, 51.231467 ] } },
{ "type": "Feature", "properties": { "verdict": "не свалка", "candidate_id": "C00066", "area_m2": 3399, "источник": "прошёл отсев" }, "geometry": { "type": "Point", "coordinates": [ 71.521647, 51.172223 ] } },
{ "type": "Feature", "properties": { "verdict": "не свалка", "candidate_id": "C00070", "area_m2": 3200, "источник": "прошёл отсев" }, "geometry": { "type": "Point", "coordinates": [ 71.542902, 51.164569 ] } },
{ "type": "Feature", "properties": { "verdict": "не свалка", "candidate_id": "C00078", "area_m2": 2804, "источник": "прошёл отсев" }, "geometry": { "type": "Point", "coordinates": [ 71.484056, 51.206527 ] } },
{ "type": "Feature", "properties": { "verdict": "не свалка", "candidate_id": "C00111", "area_m2": 2099, "источник": "прошёл отсев" }, "geometry": { "type": "Point", "coordinates": [ 71.64217, 51.181937 ] } },
{ "type": "Feature", "properties": { "verdict": "не свалка", "candidate_id": "C00117", "area_m2": 1900, "источник": "прошёл отсев" }, "geometry": { "type": "Point", "coordinates": [ 71.555816, 51.237685 ] } },
{ "type": "Feature", "properties": { "verdict": "не свалка", "candidate_id": "C00125", "area_m2": 1704, "источник": "прошёл отсев" }, "geometry": { "type": "Point", "coordinates": [ 71.519829, 51.158548 ] } },
{ "type": "Feature", "properties": { "verdict": "не свалка", "candidate_id": "C00131", "area_m2": 1698, "источник": "прошёл отсев" }, "geometry": { "type": "Point", "coordinates": [ 71.652921, 51.231065 ] } },
{ "type": "Feature", "properties": { "verdict": "не свалка", "candidate_id": "C00136", "area_m2": 1599, "источник": "прошёл отсев" }, "geometry": { "type": "Point", "coordinates": [ 71.515528, 51.163626 ] } },
{ "type": "Feature", "properties": { "verdict": "не свалка", "candidate_id": "C00144", "area_m2": 1498, "источник": "прошёл отсев" }, "geometry": { "type": "Point", "coordinates": [ 71.50859, 51.183389 ] } },
{ "type": "Feature", "properties": { "verdict": "не свалка", "candidate_id": "C00163", "area_m2": 1301, "источник": "прошёл отсев" }, "geometry": { "type": "Point", "coordinates": [ 71.506461, 51.214016 ] } },
{ "type": "Feature", "properties": { "verdict": "не свалка", "candidate_id": "C00168", "area_m2": 1299, "источник": "прошёл отсев" }, "geometry": { "type": "Point", "coordinates": [ 71.533232, 51.182591 ] } },
{ "type": "Feature", "properties": { "verdict": "не свалка", "candidate_id": "C00176", "area_m2": 1200, "источник": "прошёл отсев" }, "geometry": { "type": "Point", "coordinates": [ 71.513177, 51.175599 ] } },
{ "type": "Feature", "properties": { "verdict": "не свалка", "candidate_id": "C00194", "area_m2": 1100, "источник": "прошёл отсев" }, "geometry": { "type": "Point", "coordinates": [ 71.610416, 51.165688 ] } },
{ "type": "Feature", "properties": { "verdict": "не свалка", "candidate_id": "C00197", "area_m2": 1099, "источник": "прошёл отсев" }, "geometry": { "type": "Point", "coordinates": [ 71.45887, 51.218487 ] } },
{ "type": "Feature", "properties": { "verdict": "не свалка", "candidate_id": "C00203", "area_m2": 1001, "источник": "прошёл отсев" }, "geometry": { "type": "Point", "coordinates": [ 71.487021, 51.208672 ] } },
{ "type": "Feature", "properties": { "verdict": "не понятно", "candidate_id": "C00005", "area_m2": 21103, "источник": "прошёл отсев" }, "geometry": { "type": "Point", "coordinates": [ 71.470883, 51.220842 ] } },
{ "type": "Feature", "properties": { "verdict": "не понятно", "candidate_id": "C00019", "area_m2": 7699, "источник": "прошёл отсев" }, "geometry": { "type": "Point", "coordinates": [ 71.547808, 51.160145 ] } },
{ "type": "Feature", "properties": { "verdict": "не понятно", "candidate_id": "C00089", "area_m2": 2500, "источник": "прошёл отсев" }, "geometry": { "type": "Point", "coordinates": [ 71.519468, 51.18302 ] } },
{ "type": "Feature", "properties": { "verdict": "не понятно", "candidate_id": "C00112", "area_m2": 2098, "источник": "прошёл отсев" }, "geometry": { "type": "Point", "coordinates": [ 71.489559, 51.192474 ] } },
{ "type": "Feature", "properties": { "verdict": "не понятно", "candidate_id": "C00128", "area_m2": 1699, "источник": "прошёл отсев" }, "geometry": { "type": "Point", "coordinates": [ 71.474705, 51.221346 ] } },
{ "type": "Feature", "properties": { "verdict": "не понятно", "candidate_id": "C00160", "area_m2": 1395, "источник": "прошёл отсев" }, "geometry": { "type": "Point", "coordinates": [ 71.550111, 51.161714 ] } },
{ "type": "Feature", "properties": { "verdict": "не понятно", "candidate_id": "C00164", "area_m2": 1300, "источник": "прошёл отсев" }, "geometry": { "type": "Point", "coordinates": [ 71.518572, 51.166039 ] } },
{ "type": "Feature", "properties": { "verdict": "не понятно", "candidate_id": "C00192", "area_m2": 1101, "источник": "прошёл отсев" }, "geometry": { "type": "Point", "coordinates": [ 71.519614, 51.166422 ] } },
{ "type": "Feature", "properties": { "verdict": "свалка", "candidate_id": null, "area_m2": 1998, "источник": "рядом с жильём" }, "geometry": { "type": "Point", "coordinates": [ 71.447479, 51.203533 ] } },
{ "type": "Feature", "properties": { "verdict": "не свалка", "candidate_id": null, "area_m2": 28597, "источник": "совпал с OSM" }, "geometry": { "type": "Point", "coordinates": [ 71.375268, 51.132886 ] } },
{ "type": "Feature", "properties": { "verdict": "не свалка", "candidate_id": null, "area_m2": 25499, "источник": "совпал с OSM" }, "geometry": { "type": "Point", "coordinates": [ 71.381344, 51.144017 ] } },
{ "type": "Feature", "properties": { "verdict": "не свалка", "candidate_id": null, "area_m2": 24294, "источник": "совпал с OSM" }, "geometry": { "type": "Point", "coordinates": [ 71.500259, 51.128598 ] } },
{ "type": "Feature", "properties": { "verdict": "не свалка", "candidate_id": null, "area_m2": 23395, "источник": "совпал с OSM" }, "geometry": { "type": "Point", "coordinates": [ 71.370553, 51.167112 ] } },
{ "type": "Feature", "properties": { "verdict": "не свалка", "candidate_id": null, "area_m2": 12594, "источник": "совпал с OSM" }, "geometry": { "type": "Point", "coordinates": [ 71.370265, 51.156596 ] } },
{ "type": "Feature", "properties": { "verdict": "не свалка", "candidate_id": null, "area_m2": 4699, "источник": "совпал с OSM" }, "geometry": { "type": "Point", "coordinates": [ 71.449674, 51.167682 ] } },
{ "type": "Feature", "properties": { "verdict": "не свалка", "candidate_id": null, "area_m2": 4600, "источник": "совпал с OSM" }, "geometry": { "type": "Point", "coordinates": [ 71.443543, 51.167046 ] } },
{ "type": "Feature", "properties": { "verdict": "не свалка", "candidate_id": null, "area_m2": 4597, "источник": "совпал с OSM" }, "geometry": { "type": "Point", "coordinates": [ 71.370557, 51.148944 ] } },
{ "type": "Feature", "properties": { "verdict": "не свалка", "candidate_id": null, "area_m2": 4303, "источник": "совпал с OSM" }, "geometry": { "type": "Point", "coordinates": [ 71.454942, 51.166497 ] } },
{ "type": "Feature", "properties": { "verdict": "не свалка", "candidate_id": null, "area_m2": 4199, "источник": "совпал с OSM" }, "geometry": { "type": "Point", "coordinates": [ 71.501184, 51.120588 ] } },
{ "type": "Feature", "properties": { "verdict": "не свалка", "candidate_id": null, "area_m2": 4102, "источник": "совпал с OSM" }, "geometry": { "type": "Point", "coordinates": [ 71.39364, 51.164265 ] } },
{ "type": "Feature", "properties": { "verdict": "не свалка", "candidate_id": null, "area_m2": 4099, "источник": "совпал с OSM" }, "geometry": { "type": "Point", "coordinates": [ 71.373683, 51.157775 ] } },
{ "type": "Feature", "properties": { "verdict": "не свалка", "candidate_id": null, "area_m2": 4095, "источник": "совпал с OSM" }, "geometry": { "type": "Point", "coordinates": [ 71.378455, 51.136512 ] } },
{ "type": "Feature", "properties": { "verdict": "не свалка", "candidate_id": null, "area_m2": 4001, "источник": "совпал с OSM" }, "geometry": { "type": "Point", "coordinates": [ 71.391386, 51.217906 ] } },
{ "type": "Feature", "properties": { "verdict": "не свалка", "candidate_id": null, "area_m2": 3998, "источник": "совпал с OSM" }, "geometry": { "type": "Point", "coordinates": [ 71.405194, 51.199816 ] } },
{ "type": "Feature", "properties": { "verdict": "не свалка", "candidate_id": null, "area_m2": 3902, "источник": "совпал с OSM" }, "geometry": { "type": "Point", "coordinates": [ 71.397576, 51.159239 ] } },
{ "type": "Feature", "properties": { "verdict": "не свалка", "candidate_id": null, "area_m2": 3700, "источник": "совпал с OSM" }, "geometry": { "type": "Point", "coordinates": [ 71.37504, 51.159526 ] } },
{ "type": "Feature", "properties": { "verdict": "не свалка", "candidate_id": null, "area_m2": 2702, "источник": "совпал с OSM" }, "geometry": { "type": "Point", "coordinates": [ 71.400104, 51.135699 ] } },
{ "type": "Feature", "properties": { "verdict": "не свалка", "candidate_id": null, "area_m2": 2695, "источник": "совпал с OSM" }, "geometry": { "type": "Point", "coordinates": [ 71.448754, 51.174945 ] } },
{ "type": "Feature", "properties": { "verdict": "не свалка", "candidate_id": null, "area_m2": 2598, "источник": "совпал с OSM" }, "geometry": { "type": "Point", "coordinates": [ 71.373396, 51.136789 ] } },
{ "type": "Feature", "properties": { "verdict": "не свалка", "candidate_id": null, "area_m2": 2501, "источник": "совпал с OSM" }, "geometry": { "type": "Point", "coordinates": [ 71.442243, 51.148054 ] } },
{ "type": "Feature", "properties": { "verdict": "не свалка", "candidate_id": null, "area_m2": 2500, "источник": "совпал с OSM" }, "geometry": { "type": "Point", "coordinates": [ 71.379045, 51.15907 ] } },
{ "type": "Feature", "properties": { "verdict": "не свалка", "candidate_id": null, "area_m2": 2498, "источник": "совпал с OSM" }, "geometry": { "type": "Point", "coordinates": [ 71.385046, 51.132604 ] } },
{ "type": "Feature", "properties": { "verdict": "не свалка", "candidate_id": null, "area_m2": 2498, "источник": "совпал с OSM" }, "geometry": { "type": "Point", "coordinates": [ 71.522733, 51.122644 ] } },
{ "type": "Feature", "properties": { "verdict": "не свалка", "candidate_id": null, "area_m2": 8397, "источник": "рядом с жильём" }, "geometry": { "type": "Point", "coordinates": [ 71.478414, 51.166404 ] } },
{ "type": "Feature", "properties": { "verdict": "не свалка", "candidate_id": null, "area_m2": 8302, "источник": "рядом с жильём" }, "geometry": { "type": "Point", "coordinates": [ 71.375436, 51.161885 ] } },
{ "type": "Feature", "properties": { "verdict": "не свалка", "candidate_id": null, "area_m2": 7523, "источник": "рядом с жильём" }, "geometry": { "type": "Point", "coordinates": [ 71.449864, 51.164847 ] } },
{ "type": "Feature", "properties": { "verdict": "не свалка", "candidate_id": null, "area_m2": 2998, "источник": "рядом с жильём" }, "geometry": { "type": "Point", "coordinates": [ 71.630838, 51.249276 ] } },
{ "type": "Feature", "properties": { "verdict": "не свалка", "candidate_id": null, "area_m2": 2905, "источник": "рядом с жильём" }, "geometry": { "type": "Point", "coordinates": [ 71.496499, 51.120914 ] } },
{ "type": "Feature", "properties": { "verdict": "не свалка", "candidate_id": null, "area_m2": 2699, "источник": "рядом с жильём" }, "geometry": { "type": "Point", "coordinates": [ 71.403708, 51.198949 ] } },
{ "type": "Feature", "properties": { "verdict": "не свалка", "candidate_id": null, "area_m2": 2501, "источник": "рядом с жильём" }, "geometry": { "type": "Point", "coordinates": [ 71.470329, 51.183755 ] } },
{ "type": "Feature", "properties": { "verdict": "не свалка", "candidate_id": null, "area_m2": 2302, "источник": "рядом с жильём" }, "geometry": { "type": "Point", "coordinates": [ 71.638092, 51.215761 ] } },
{ "type": "Feature", "properties": { "verdict": "не свалка", "candidate_id": null, "area_m2": 2300, "источник": "рядом с жильём" }, "geometry": { "type": "Point", "coordinates": [ 71.49217, 51.129693 ] } },
{ "type": "Feature", "properties": { "verdict": "не свалка", "candidate_id": null, "area_m2": 2199, "источник": "рядом с жильём" }, "geometry": { "type": "Point", "coordinates": [ 71.478922, 51.161217 ] } },
{ "type": "Feature", "properties": { "verdict": "не свалка", "candidate_id": null, "area_m2": 2100, "источник": "рядом с жильём" }, "geometry": { "type": "Point", "coordinates": [ 71.538384, 51.120063 ] } },
{ "type": "Feature", "properties": { "verdict": "не свалка", "candidate_id": null, "area_m2": 2099, "источник": "рядом с жильём" }, "geometry": { "type": "Point", "coordinates": [ 71.392426, 51.217436 ] } },
{ "type": "Feature", "properties": { "verdict": "не понятно", "candidate_id": null, "area_m2": 23906, "источник": "рядом с жильём" }, "geometry": { "type": "Point", "coordinates": [ 71.371903, 51.163057 ] } },
{ "type": "Feature", "properties": { "verdict": "не понятно", "candidate_id": null, "area_m2": 9424, "источник": "рядом с жильём" }, "geometry": { "type": "Point", "coordinates": [ 71.47934, 51.201555 ] } },
{ "type": "Feature", "properties": { "verdict": "не понятно", "candidate_id": null, "area_m2": 2798, "источник": "рядом с жильём" }, "geometry": { "type": "Point", "coordinates": [ 71.480119, 51.166196 ] } },
{ "type": "Feature", "properties": { "verdict": "не понятно", "candidate_id": null, "area_m2": 1899, "источник": "рядом с жильём" }, "geometry": { "type": "Point", "coordinates": [ 71.616014, 51.257171 ] } }
]
}
