{
"type": "FeatureCollection",
"name": "candidates",
"crs": { "type": "name", "properties": { "name": "urn:ogc:def:crs:OGC:1.3:CRS84" } },
"features": [
{ "type": "Feature", "properties": { "candidate_id": "C00018", "n_pieces": 2, "n_pixels": 148, "ndvi_drop": 0.28618079423904419, "bsi_rise": 0.12631422281265259, "zscore_median": 3.570695161819458, "ndvi_before": 0.4020783007144928, "ndvi_after": 0.12370254844427107, "zscore_max": 4.0698952674865723, "break_date": "2020-10-01T00:00:00", "break_index": 20, "area_m2": 7404.4630667498768, "probability": null, "pmli_response": -0.0058367630396503334, "dist_road_m": 6.2756353228389976, "dist_settlement_m": 2881.765708346647, "reject_reason": null, "passes_context": true, "evidence_score": 0.44097210112072177, "n_agreeing": 2, "damage_p10": 4740284.8562676748, "damage_p50": 18477788.249408796, "damage_p90": 36936014.734881379, "mass_t": 2425.4915291712023, "co2e_t": 449.91708316241494, "penalty_kzt": 432500.0, "penalty_article": "ст. 344, ч. 2-1", "removal_status": "active", "removal_confidence": 0.0, "removal_note": "объект активен: признаков устранения нет", "visual_check": "not_landfill", "verify_providers": 2, "verify_confirmed": true, "verify_texture": 0.84045825836559129 }, "geometry": { "type": "Polygon", "coordinates": [ [ [ 71.524737, 51.159387 ], [ 71.524595, 51.15939 ], [ 71.524585, 51.15921 ], [ 71.524294, 51.159126 ], [ 71.524289, 51.159037 ], [ 71.524146, 51.15904 ], [ 71.524141, 51.15895 ], [ 71.523747, 51.158958 ], [ 71.52357, 51.158962 ], [ 71.523546, 51.158995 ], [ 71.523437, 51.159145 ], [ 71.523294, 51.159148 ], [ 71.523294, 51.159148 ], [ 71.523294, 51.159148 ], [ 71.523297, 51.159203 ], [ 71.523299, 51.159238 ], [ 71.523025, 51.159159 ], [ 71.523008, 51.159154 ], [ 71.523013, 51.159244 ], [ 71.522925, 51.159246 ], [ 71.52287, 51.159247 ], [ 71.522875, 51.159337 ], [ 71.523018, 51.159334 ], [ 71.523024, 51.159445 ], [ 71.523028, 51.159513 ], [ 71.522958, 51.159515 ], [ 71.522885, 51.159517 ], [ 71.522885, 51.159517 ], [ 71.522885, 51.159517 ], [ 71.522888, 51.159579 ], [ 71.52289, 51.159606 ], [ 71.523033, 51.159603 ], [ 71.523038, 51.159693 ], [ 71.523251, 51.159689 ], [ 71.523323, 51.159687 ], [ 71.523323, 51.159687 ], [ 71.523323, 51.159687 ], [ 71.5234, 51.159582 ], [ 71.523457, 51.159504 ], [ 71.523742, 51.159498 ], [ 71.523737, 51.159408 ], [ 71.524023, 51.159402 ], [ 71.524176, 51.159579 ], [ 71.524319, 51.159576 ], [ 71.524324, 51.159665 ], [ 71.524466, 51.159662 ], [ 71.524471, 51.159752 ], [ 71.524471, 51.159752 ], [ 71.524471, 51.159752 ], [ 71.524614, 51.159749 ], [ 71.524619, 51.159839 ], [ 71.524905, 51.159833 ], [ 71.5249, 51.159743 ], [ 71.525043, 51.15974 ], [ 71.525033, 51.15956 ], [ 71.524742, 51.159476 ], [ 71.524737, 51.159387 ] ] ] } },
{ "type": "Feature", "properties": { "candidate_id": "C00031", "n_pieces": 1, "n_pixels": 56, "ndvi_drop": 0.39242011308670044, "bsi_rise": 0.12852475047111511, "zscore_median": 3.7760186195373535, "ndvi_before": 0.46549814939498901, "ndvi_after": 0.071106493473052979, "zscore_max": 4.157135009765625, "break_date": "2020-09-01T00:00:00", "break_index": 19, "area_m2": 5600.0, "probability": null, "pmli_response": -0.048301521962857225, "dist_road_m": 12.37644442330858, "dist_settlement_m": 2891.5465583043647, "reject_reason": null, "passes_context": true, "evidence_score": 0.50469966729482019, "n_agreeing": 2, "damage_p10": 3585080.3705542572, "damage_p50": 13974762.688918237, "damage_p90": 27934730.803664748, "mass_t": 1834.4007446472092, "co2e_t": 340.27256844910585, "penalty_kzt": 432500.0, "penalty_article": "ст. 344, ч. 2-1", "removal_status": "active", "removal_confidence": 0.0, "removal_note": "объект активен: признаков устранения нет", "visual_check": "landfill", "verify_providers": 2, "verify_confirmed": true, "verify_texture": 0.76909049765931237 }, "geometry": { "type": "Polygon", "coordinates": [ [ [ 71.51776, 51.165203 ], [ 71.51775, 51.165024 ], [ 71.517607, 51.165027 ], [ 71.517592, 51.164757 ], [ 71.517449, 51.16476 ], [ 71.517444, 51.164671 ], [ 71.517016, 51.16468 ], [ 71.517021, 51.16477 ], [ 71.516878, 51.164773 ], [ 71.516888, 51.164952 ], [ 71.516745, 51.164955 ], [ 71.516755, 51.165135 ], [ 71.516474, 51.165231 ], [ 71.516483, 51.165411 ], [ 71.516626, 51.165408 ], [ 71.516636, 51.165587 ], [ 71.516779, 51.165584 ], [ 71.516784, 51.165674 ], [ 71.517065, 51.165578 ], [ 71.51706, 51.165488 ], [ 71.517203, 51.165485 ], [ 71.517198, 51.165395 ], [ 71.517341, 51.165392 ], [ 71.517336, 51.165302 ], [ 71.517622, 51.165296 ], [ 71.517617, 51.165206 ], [ 71.51776, 51.165203 ] ] ] } },
{ "type": "Feature", "properties": { "candidate_id": "C00034", "n_pieces": 2, "n_pixels": 96, "ndvi_drop": 0.28271921910345554, "bsi_rise": 0.11216292576864362, "zscore_median": 4.583716481924057, "ndvi_before": 0.53003325685858727, "ndvi_after": 0.22912932746112347, "zscore_max": 4.9922890663146973, "break_date": "2019-08-01T00:00:00", "break_index": 11, "area_m2": 5483.3333333319752, "probability": null, "pmli_response": -0.032447542799451959, "dist_road_m": 0.0, "dist_settlement_m": 2132.4721650948077, "reject_reason": null, "passes_context": true, "evidence_score": 0.41880696683767299, "n_agreeing": 2, "damage_p10": 3510391.1961668413, "damage_p50": 13683621.79956238, "damage_p90": 27352757.245248299, "mass_t": 1796.1840624666143, "co2e_t": 333.1835566063337, "penalty_kzt": 432500.0, "penalty_article": "ст. 344, ч. 2-1", "removal_status": "active", "removal_confidence": 0.0, "removal_note": "объект активен: признаков устранения нет", "visual_check": "not_landfill", "verify_providers": 2, "verify_confirmed": false, "verify_texture": 0.17095668299589306 }, "geometry": { "type": "Polygon", "coordinates": [ [ [ 71.648181, 51.231847 ], [ 71.648186, 51.231937 ], [ 71.648472, 51.231931 ], [ 71.648477, 51.232021 ], [ 71.648763, 51.232014 ], [ 71.648758, 51.231924 ], [ 71.648901, 51.231921 ], [ 71.648891, 51.231741 ], [ 71.648748, 51.231745 ], [ 71.648743, 51.231655 ], [ 71.648457, 51.231661 ], [ 71.648451, 51.231571 ], [ 71.64817, 51.231668 ], [ 71.648165, 51.231578 ], [ 71.648022, 51.231581 ], [ 71.648027, 51.231671 ], [ 71.647956, 51.231673 ], [ 71.647879, 51.231584 ], [ 71.647593, 51.231591 ], [ 71.64745, 51.231594 ], [ 71.647164, 51.231601 ], [ 71.647031, 51.231783 ], [ 71.646888, 51.231787 ], [ 71.647041, 51.231963 ], [ 71.646898, 51.231966 ], [ 71.646903, 51.232056 ], [ 71.646975, 51.232055 ], [ 71.647052, 51.232143 ], [ 71.647338, 51.232136 ], [ 71.64747, 51.231953 ], [ 71.647757, 51.231947 ], [ 71.647762, 51.232037 ], [ 71.647905, 51.232034 ], [ 71.647949, 51.231973 ], [ 71.648043, 51.23194 ], [ 71.648038, 51.231851 ], [ 71.648181, 51.231847 ] ] ] } },
{ "type": "Feature", "properties": { "candidate_id": "C00052", "n_pieces": 2, "n_pixels": 49, "ndvi_drop": 0.22649750265539909, "bsi_rise": 0.082167341696972748, "zscore_median": 4.5585429619769657, "ndvi_before": 0.44266142103136802, "ndvi_after": 0.21753652728333764, "zscore_max": 4.9958510398864746, "break_date": "2019-08-01T00:00:00", "break_index": 11, "area_m2": 3758.3333333319752, "probability": null, "pmli_response": -0.00093457797199954576, "dist_road_m": 95.091864992782575, "dist_settlement_m": 2267.4020207950766, "reject_reason": null, "passes_context": true, "evidence_score": 0.32526836288681998, "n_agreeing": 2, "damage_p10": 2406058.4034514674, "damage_p50": 9378895.7927081063, "damage_p90": 18747862.488762278, "mass_t": 1231.1231188029651, "co2e_t": 228.36745293227872, "penalty_kzt": 432500.0, "penalty_article": "ст. 344, ч. 2-1", "removal_status": "active", "removal_confidence": 0.0, "removal_note": "объект активен: признаков устранения нет", "visual_check": "not_landfill", "verify_providers": 2, "verify_confirmed": false, "verify_texture": 0.16891696523978478 }, "geometry": { "type": "Polygon", "coordinates": [ [ [ 71.651502, 51.231472 ], [ 71.651451, 51.231414 ], [ 71.651594, 51.23141 ], [ 71.651589, 51.23132 ], [ 71.651446, 51.231324 ], [ 71.65144, 51.231234 ], [ 71.651011, 51.231244 ], [ 71.651006, 51.231154 ], [ 71.65072, 51.23116 ], [ 71.650587, 51.231343 ], [ 71.650444, 51.231346 ], [ 71.650597, 51.231523 ], [ 71.650741, 51.23152 ], [ 71.650608, 51.231702 ], [ 71.650751, 51.231699 ], [ 71.650756, 51.231789 ], [ 71.650899, 51.231786 ], [ 71.651042, 51.231783 ], [ 71.65104, 51.231738 ], [ 71.65118, 51.231689 ], [ 71.651185, 51.231779 ], [ 71.651328, 51.231776 ], [ 71.651461, 51.231593 ], [ 71.651604, 51.23159 ], [ 71.651599, 51.2315 ], [ 71.651502, 51.231472 ] ] ] } },
{ "type": "Feature", "properties": { "candidate_id": "C00059", "n_pieces": 1, "n_pixels": 34, "ndvi_drop": 0.33895754814147949, "bsi_rise": 0.18692877888679504, "zscore_median": 4.2436237335205078, "ndvi_before": 0.38161903619766235, "ndvi_after": 0.04299391433596611, "zscore_max": 4.5355954170227051, "break_date": "2020-06-01T00:00:00", "break_index": 16, "area_m2": 3400.0, "probability": null, "pmli_response": 0.022912789797040617, "dist_road_m": 0.0, "dist_settlement_m": 3524.2559118701993, "reject_reason": null, "passes_context": true, "evidence_score": 0.76299499934009329, "n_agreeing": 3, "damage_p10": 2176655.9392650872, "damage_p50": 8484677.3468432128, "damage_p90": 16960372.273653597, "mass_t": 1113.7433092500914, "co2e_t": 206.59405941552853, "penalty_kzt": 432500.0, "penalty_article": "ст. 344, ч. 2-1", "removal_status": "active", "removal_confidence": 0.0, "removal_note": "объект активен: признаков устранения нет", "visual_check": "not_landfill", "verify_providers": 2, "verify_confirmed": true, "verify_texture": 0.69797663908037877 }, "geometry": { "type": "Polygon", "coordinates": [ [ [ 71.522133, 51.171945 ], [ 71.522128, 51.171855 ], [ 71.521847, 51.171951 ], [ 71.521852, 51.172041 ], [ 71.521709, 51.172044 ], [ 71.521704, 51.171954 ], [ 71.521418, 51.17196 ], [ 71.521423, 51.17205 ], [ 71.52128, 51.172053 ], [ 71.521295, 51.172322 ], [ 71.521438, 51.172319 ], [ 71.521448, 51.172499 ], [ 71.521591, 51.172496 ], [ 71.521596, 51.172586 ], [ 71.522024, 51.172577 ], [ 71.522019, 51.172487 ], [ 71.522162, 51.172484 ], [ 71.522157, 51.172394 ], [ 71.522015, 51.172397 ], [ 71.522, 51.172127 ], [ 71.522281, 51.172031 ], [ 71.522276, 51.171942 ], [ 71.522133, 51.171945 ] ] ] } },
{ "type": "Feature", "properties": { "candidate_id": "C00068", "n_pieces": 2, "n_pixels": 58, "ndvi_drop": 0.26354706287384033, "bsi_rise": 0.11396496742963791, "zscore_median": 4.3055758476257324, "ndvi_before": 0.37174180150032043, "ndvi_after": 0.10186242312192917, "zscore_max": 4.4953007698059082, "break_date": "2024-10-01T00:00:00", "break_index": 48, "area_m2": 2900.0, "probability": null, "pmli_response": -0.0055571221308237245, "dist_road_m": 34.506005501197343, "dist_settlement_m": 2714.5610237062142, "reject_reason": null, "passes_context": true, "evidence_score": 0.40295049264317467, "n_agreeing": 2, "damage_p10": 1856559.477608457, "damage_p50": 7236930.6781897992, "damage_p90": 14466199.880469242, "mass_t": 949.95752847801919, "co2e_t": 176.21258008971557, "penalty_kzt": 432500.0, "penalty_article": "ст. 344, ч. 2-1", "removal_status": "active", "removal_confidence": 0.0, "removal_note": "объект активен: признаков устранения нет", "visual_check": "not_landfill", "verify_providers": 2, "verify_confirmed": true, "verify_texture": 0.65154067054390907 }, "geometry": { "type": "Polygon", "coordinates": [ [ [ 71.542882, 51.16421 ], [ 71.542877, 51.16412 ], [ 71.542596, 51.164216 ], [ 71.542749, 51.164393 ], [ 71.542468, 51.164489 ], [ 71.542483, 51.164758 ], [ 71.542626, 51.164755 ], [ 71.542631, 51.164845 ], [ 71.542911, 51.164749 ], [ 71.542916, 51.164839 ], [ 71.543059, 51.164836 ], [ 71.543192, 51.164653 ], [ 71.543335, 51.16465 ], [ 71.543325, 51.16447 ], [ 71.543035, 51.164386 ], [ 71.543025, 51.164207 ], [ 71.542882, 51.16421 ] ] ] } },
{ "type": "Feature", "properties": { "candidate_id": "C00071", "n_pieces": 1, "n_pixels": 28, "ndvi_drop": 0.40931606292724609, "bsi_rise": 0.10173328220844269, "zscore_median": 5.0206284523010254, "ndvi_before": 0.46596354246139526, "ndvi_after": 0.059065245091915131, "zscore_max": 5.271392822265625, "break_date": "2019-07-01T00:00:00", "break_index": 10, "area_m2": 2800.0, "probability": null, "pmli_response": 0.026838668965638468, "dist_road_m": 32.500953715748594, "dist_settlement_m": 1504.531181025782, "reject_reason": null, "passes_context": true, "evidence_score": 0.69263328432491089, "n_agreeing": 3, "damage_p10": 1792540.1852771286, "damage_p50": 6987381.3444591183, "damage_p90": 13967365.401832374, "mass_t": 917.2003723236046, "co2e_t": 170.13628422455292, "penalty_kzt": 432500.0, "penalty_article": "ст. 344, ч. 2-1", "removal_status": "active", "removal_confidence": 0.0, "removal_note": "объект активен: признаков устранения нет", "visual_check": "not_landfill", "verify_providers": 2, "verify_confirmed": true, "verify_texture": 0.87643467862572932 }, "geometry": { "type": "Polygon", "coordinates": [ [ [ 71.48435, 51.206301 ], [ 71.484355, 51.206391 ], [ 71.484212, 51.206394 ], [ 71.484207, 51.206304 ], [ 71.483635, 51.206316 ], [ 71.48364, 51.206406 ], [ 71.483497, 51.206409 ], [ 71.483507, 51.206589 ], [ 71.48365, 51.206586 ], [ 71.483654, 51.206676 ], [ 71.483936, 51.20658 ], [ 71.48394, 51.20667 ], [ 71.484512, 51.206658 ], [ 71.484646, 51.206475 ], [ 71.484789, 51.206472 ], [ 71.484784, 51.206382 ], [ 71.484641, 51.206385 ], [ 71.484636, 51.206295 ], [ 71.48435, 51.206301 ] ] ] } },
{ "type": "Feature", "properties": { "candidate_id": "C00077", "n_pieces": 4, "n_pixels": 69, "ndvi_drop": 0.51250453098960547, "bsi_rise": 0.16364943268506424, "zscore_median": 3.3024966094804848, "ndvi_before": 0.57675172194190649, "ndvi_after": 0.060333875858265419, "zscore_max": 3.5274484157562256, "break_date": "2023-09-01T00:00:00", "break_index": 40, "area_m2": 2600.0, "probability": null, "pmli_response": -0.097665970165168231, "dist_road_m": 199.60870957346788, "dist_settlement_m": 5078.2161929683043, "reject_reason": null, "passes_context": true, "evidence_score": 0.55153257691341906, "n_agreeing": 2, "damage_p10": 1664501.6006144779, "damage_p50": 6488282.6769977519, "damage_p90": 12969696.444558633, "mass_t": 851.68606001477576, "co2e_t": 157.98369249422774, "penalty_kzt": 432500.0, "penalty_article": "ст. 344, ч. 2-1", "removal_status": "active", "removal_confidence": 0.0, "removal_note": "объект активен: признаков устранения нет", "visual_check": "not_landfill", "verify_providers": 2, "verify_confirmed": true, "verify_texture": 0.37899792191779447 }, "geometry": { "type": "Polygon", "coordinates": [ [ [ 71.55551, 51.237327 ], [ 71.555366, 51.23733 ], [ 71.555233, 51.237512 ], [ 71.555524, 51.237596 ], [ 71.555529, 51.237686 ], [ 71.555673, 51.237683 ], [ 71.555678, 51.237773 ], [ 71.555821, 51.237769 ], [ 71.555688, 51.237952 ], [ 71.555544, 51.237955 ], [ 71.555697, 51.238132 ], [ 71.555984, 51.238126 ], [ 71.556117, 51.237943 ], [ 71.55626, 51.23794 ], [ 71.556107, 51.237763 ], [ 71.555964, 51.237766 ], [ 71.555959, 51.237676 ], [ 71.556102, 51.237673 ], [ 71.556097, 51.237583 ], [ 71.555954, 51.237587 ], [ 71.555949, 51.237497 ], [ 71.555663, 51.237503 ], [ 71.55551, 51.237327 ] ] ] } },
{ "type": "Feature", "properties": { "candidate_id": "C00082", "n_pieces": 1, "n_pixels": 25, "ndvi_drop": 0.18564124405384064, "bsi_rise": 0.092632122337818146, "zscore_median": 4.3740677833557129, "ndvi_before": 0.47346904873847961, "ndvi_after": 0.28821831941604614, "zscore_max": 4.7418346405029297, "break_date": "2019-09-01T00:00:00", "break_index": 12, "area_m2": 2500.0, "probability": null, "pmli_response": 0.004573420566594863, "dist_road_m": 172.38744370315226, "dist_settlement_m": 3966.0836930042342, "reject_reason": null, "passes_context": true, "evidence_score": 0.33842251931856299, "n_agreeing": 2, "damage_p10": 1600482.30828315, "damage_p50": 6238733.3432670692, "damage_p90": 12470861.965921761, "mass_t": 818.92890386036129, "co2e_t": 151.90739662906509, "penalty_kzt": 432500.0, "penalty_article": "ст. 344, ч. 2-1", "removal_status": "possibly_removed", "removal_confidence": 0.87, "removal_note": "вероятно устранён (уверенность 87%, согласны признаков: 2 из 5, подтверждено проходов подряд: 4)", "visual_check": "unclear", "verify_providers": 2, "verify_confirmed": true, "verify_texture": 0.70892669208761716 }, "geometry": { "type": "Polygon", "coordinates": [ [ [ 71.519434, 51.182796 ], [ 71.519439, 51.182886 ], [ 71.519153, 51.182892 ], [ 71.51902, 51.183074 ], [ 71.518877, 51.183078 ], [ 71.51903, 51.183254 ], [ 71.519173, 51.183251 ], [ 71.519178, 51.183341 ], [ 71.519458, 51.183245 ], [ 71.519463, 51.183335 ], [ 71.519606, 51.183332 ], [ 71.519739, 51.183149 ], [ 71.519882, 51.183146 ], [ 71.519873, 51.182966 ], [ 71.519582, 51.182882 ], [ 71.519577, 51.182793 ], [ 71.519434, 51.182796 ] ] ] } },
{ "type": "Feature", "properties": { "candidate_id": "C00098", "n_pieces": 3, "n_pixels": 63, "ndvi_drop": 0.47145748138427729, "bsi_rise": 0.17822848260402679, "zscore_median": 3.1041250228881836, "ndvi_before": 0.57282638549804676, "ndvi_after": 0.11125072836875914, "zscore_max": 3.2497646808624268, "break_date": "2022-04-01T00:00:00", "break_index": 28, "area_m2": 2101.4188406928665, "probability": null, "pmli_response": -0.02252784745667466, "dist_road_m": 37.743141445885094, "dist_settlement_m": 1671.9155437057977, "reject_reason": null, "passes_context": true, "evidence_score": 0.57097131013870239, "n_agreeing": 2, "damage_p10": 1345313.4707287289, "damage_p50": 5244076.7158400854, "damage_p90": 10482601.717947232, "mass_t": 688.36505110404812, "co2e_t": 127.6884261267686, "penalty_kzt": 432500.0, "penalty_article": "ст. 344, ч. 2-1", "removal_status": "active", "removal_confidence": 0.0, "removal_note": "объект активен: признаков устранения нет", "visual_check": "unclear", "verify_providers": 2, "verify_confirmed": true, "verify_texture": 0.73082488609684848 }, "geometry": { "type": "Polygon", "coordinates": [ [ [ 71.489479, 51.192558 ], [ 71.489477, 51.192521 ], [ 71.489768, 51.192605 ], [ 71.489768, 51.192605 ], [ 71.489768, 51.192605 ], [ 71.489763, 51.192517 ], [ 71.489763, 51.192515 ], [ 71.489906, 51.192512 ], [ 71.489906, 51.192512 ], [ 71.489906, 51.192512 ], [ 71.489905, 51.1925 ], [ 71.489896, 51.192333 ], [ 71.489606, 51.192249 ], [ 71.489601, 51.192159 ], [ 71.489601, 51.192159 ], [ 71.489601, 51.192159 ], [ 71.48932, 51.192255 ], [ 71.489325, 51.192361 ], [ 71.489329, 51.192435 ], [ 71.489204, 51.192477 ], [ 71.489048, 51.19253 ], [ 71.489053, 51.192617 ], [ 71.489053, 51.19262 ], [ 71.48891, 51.192623 ], [ 71.48891, 51.192623 ], [ 71.48891, 51.192623 ], [ 71.489063, 51.1928 ], [ 71.489063, 51.1928 ], [ 71.489063, 51.1928 ], [ 71.489344, 51.192704 ], [ 71.489339, 51.192614 ], [ 71.489482, 51.192611 ], [ 71.489482, 51.192611 ], [ 71.489482, 51.192611 ], [ 71.489479, 51.192558 ] ] ] } },
{ "type": "Feature", "properties": { "candidate_id": "C00102", "n_pieces": 1, "n_pixels": 21, "ndvi_drop": 0.51018649339675903, "bsi_rise": 0.15915501117706299, "zscore_median": 3.7883520126342773, "ndvi_before": 0.64473491907119751, "ndvi_after": 0.12387250363826752, "zscore_max": 3.984879732131958, "break_date": "2021-04-01T00:00:00", "break_index": 21, "area_m2": 2100.0, "probability": null, "pmli_response": -0.032557517408333084, "dist_road_m": 53.704249370161214, "dist_settlement_m": 4000.9158417354397, "reject_reason": null, "passes_context": true, "evidence_score": 0.54554001490275061, "n_agreeing": 2, "damage_p10": 1344405.1389578467, "damage_p50": 5240536.0083443373, "damage_p90": 10475524.051374281, "mass_t": 687.90027924270362, "co2e_t": 127.60221316841474, "penalty_kzt": 432500.0, "penalty_article": "ст. 344, ч. 2-1", "removal_status": "active", "removal_confidence": 0.0, "removal_note": "объект активен: признаков устранения нет", "visual_check": "not_landfill", "verify_providers": 2, "verify_confirmed": false, "verify_texture": 0.33443121749183369 }, "geometry": { "type": "Polygon", "coordinates": [ [ [ 71.641881, 51.181892 ], [ 71.641886, 51.181982 ], [ 71.641743, 51.181985 ], [ 71.641753, 51.182165 ], [ 71.641896, 51.182161 ], [ 71.641901, 51.182251 ], [ 71.64233, 51.182242 ], [ 71.642325, 51.182152 ], [ 71.642468, 51.182149 ], [ 71.642447, 51.181789 ], [ 71.642304, 51.181792 ], [ 71.642299, 51.181703 ], [ 71.642019, 51.181799 ], [ 71.642024, 51.181889 ], [ 71.641881, 51.181892 ] ] ] } },
{ "type": "Feature", "properties": { "candidate_id": "C00113", "n_pieces": 2, "n_pixels": 34, "ndvi_drop": 0.25931164622306824, "bsi_rise": 0.13949185609817505, "zscore_median": 3.863767147064209, "ndvi_before": 0.45229095220565801, "ndvi_after": 0.17704187333583835, "zscore_max": 4.0961399078369141, "break_date": "2021-04-01T00:00:00", "break_index": 21, "area_m2": 1704.3981144879458, "probability": null, "pmli_response": -0.013525448906019449, "dist_road_m": 14.502181589844303, "dist_settlement_m": 2804.0603904668251, "reject_reason": null, "passes_context": true, "evidence_score": 0.4329526140576318, "n_agreeing": 2, "damage_p10": 1091143.6114036471, "damage_p50": 4253314.1388229877, "damage_p90": 8502125.4483025987, "mass_t": 558.312351855712, "co2e_t": 103.56427215654045, "penalty_kzt": 432500.0, "penalty_article": "ст. 344, ч. 2-1", "removal_status": "active", "removal_confidence": 0.0, "removal_note": "объект активен: признаков устранения нет", "visual_check": "not_landfill", "verify_providers": 2, "verify_confirmed": true, "verify_texture": 0.68876760452985764 }, "geometry": { "type": "Polygon", "coordinates": [ [ [ 71.520102, 51.158317 ], [ 71.519959, 51.15832 ], [ 71.519964, 51.15841 ], [ 71.519678, 51.158416 ], [ 71.519545, 51.158599 ], [ 71.519402, 51.158602 ], [ 71.519407, 51.158692 ], [ 71.519265, 51.158695 ], [ 71.519265, 51.158695 ], [ 71.519265, 51.158695 ], [ 71.519365, 51.158812 ], [ 71.519417, 51.158872 ], [ 71.519698, 51.158776 ], [ 71.519698, 51.158775 ], [ 71.519693, 51.158686 ], [ 71.519979, 51.15868 ], [ 71.520112, 51.158497 ], [ 71.520197, 51.158495 ], [ 71.520255, 51.158494 ], [ 71.520102, 51.158317 ] ] ] } },
{ "type": "Feature", "properties": { "candidate_id": "C00115", "n_pieces": 2, "n_pixels": 28, "ndvi_drop": 0.40977870140756878, "bsi_rise": 0.17819818056055478, "zscore_median": 4.5385583639144897, "ndvi_before": 0.52588184603622978, "ndvi_after": 0.13610480805592878, "zscore_max": 4.946387767791748, "break_date": "2019-08-01T00:00:00", "break_index": 11, "area_m2": 1700.0, "probability": null, "pmli_response": 0.039292193761634925, "dist_road_m": 223.87211517972349, "dist_settlement_m": 2352.7343238519111, "reject_reason": null, "passes_context": true, "evidence_score": 0.89836585542769753, "n_agreeing": 3, "damage_p10": 1088327.9696325436, "damage_p50": 4242338.6734216064, "damage_p90": 8480186.1368267983, "mass_t": 556.87165462504572, "co2e_t": 103.29702970776427, "penalty_kzt": 432500.0, "penalty_article": "ст. 344, ч. 2-1", "removal_status": "active", "removal_confidence": 0.0, "removal_note": "объект активен: признаков устранения нет", "visual_check": "not_landfill", "verify_providers": 2, "verify_confirmed": false, "verify_texture": 0.16395206352333641 }, "geometry": { "type": "Polygon", "coordinates": [ [ [ 71.652575, 51.231028 ], [ 71.652442, 51.231211 ], [ 71.652585, 51.231208 ], [ 71.65259, 51.231298 ], [ 71.653019, 51.231288 ], [ 71.653152, 51.231105 ], [ 71.653295, 51.231102 ], [ 71.65329, 51.231012 ], [ 71.653433, 51.231009 ], [ 71.653428, 51.230919 ], [ 71.653137, 51.230836 ], [ 71.653004, 51.231019 ], [ 71.652575, 51.231028 ] ] ] } },
{ "type": "Feature", "properties": { "candidate_id": "C00122", "n_pieces": 1, "n_pixels": 16, "ndvi_drop": 0.4782676100730896, "bsi_rise": 0.098801083862781525, "zscore_median": 3.7125349044799805, "ndvi_before": 0.52462607622146606, "ndvi_after": 0.046793274581432343, "zscore_max": 3.856003999710083, "break_date": "2021-04-01T00:00:00", "break_index": 21, "area_m2": 1600.0, "probability": null, "pmli_response": -0.017210044381863326, "dist_road_m": 0.0, "dist_settlement_m": 2732.534656283975, "reject_reason": null, "passes_context": true, "evidence_score": 0.46506811181704205, "n_agreeing": 2, "damage_p10": 1024308.6773012171, "damage_p50": 3992789.3396909246, "damage_p90": 7981351.6581899282, "mass_t": 524.11449847063125, "co2e_t": 97.220733842601675, "penalty_kzt": 432500.0, "penalty_article": "ст. 344, ч. 2-1", "removal_status": "active", "removal_confidence": 0.0, "removal_note": "объект активен: признаков устранения нет", "visual_check": "not_landfill", "verify_providers": 2, "verify_confirmed": true, "verify_texture": 0.67455963479975856 }, "geometry": { "type": "Polygon", "coordinates": [ [ [ 71.515395, 51.163815 ], [ 71.5154, 51.163905 ], [ 71.515681, 51.163809 ], [ 71.515676, 51.163719 ], [ 71.515819, 51.163716 ], [ 71.515809, 51.163536 ], [ 71.515519, 51.163453 ], [ 71.515514, 51.163363 ], [ 71.515233, 51.163459 ], [ 71.515252, 51.163818 ], [ 71.515395, 51.163815 ] ] ] } },
{ "type": "Feature", "properties": { "candidate_id": "C00125", "n_pieces": 4, "n_pixels": 60, "ndvi_drop": 0.36742660403251642, "bsi_rise": 0.12963120639324188, "zscore_median": 4.1444258689880371, "ndvi_before": 0.48197093605995178, "ndvi_after": 0.10612590610980989, "zscore_max": 4.4393911361694336, "break_date": "2024-09-01T00:00:00", "break_index": 47, "area_m2": 1503.1584186677176, "probability": null, "pmli_response": -0.010820648321519633, "dist_road_m": 116.09334360793497, "dist_settlement_m": 2175.7448729794642, "reject_reason": null, "passes_context": true, "evidence_score": 0.50617494185765588, "n_agreeing": 2, "damage_p10": 962311.38224982366, "damage_p50": 3751121.818701956, "damage_p90": 7498272.4608473377, "mass_t": 492.39195045121119, "co2e_t": 91.336352840350116, "penalty_kzt": 432500.0, "penalty_article": "ст. 344, ч. 2-1", "removal_status": "active", "removal_confidence": 0.0, "removal_note": "объект активен: признаков устранения нет", "visual_check": "landfill", "verify_providers": 2, "verify_confirmed": true, "verify_texture": 0.5459303811399473 }, "geometry": { "type": "Polygon", "coordinates": [ [ [ 71.548571, 51.161028 ], [ 71.548143, 51.161037 ], [ 71.548143, 51.161037 ], [ 71.548143, 51.161037 ], [ 71.548148, 51.161127 ], [ 71.548005, 51.16113 ], [ 71.548005, 51.16113 ], [ 71.548005, 51.16113 ], [ 71.548015, 51.16131 ], [ 71.548015, 51.16131 ], [ 71.548015, 51.16131 ], [ 71.548157, 51.161307 ], [ 71.548162, 51.161397 ], [ 71.548443, 51.161301 ], [ 71.548443, 51.161301 ], [ 71.548443, 51.161301 ], [ 71.548438, 51.161211 ], [ 71.548724, 51.161205 ], [ 71.548724, 51.161205 ], [ 71.548724, 51.161205 ], [ 71.548719, 51.161115 ], [ 71.548862, 51.161112 ], [ 71.548862, 51.161112 ], [ 71.548862, 51.161112 ], [ 71.548709, 51.160935 ], [ 71.548709, 51.160935 ], [ 71.548709, 51.160935 ], [ 71.548566, 51.160938 ], [ 71.548571, 51.161028 ] ] ] } },
{ "type": "Feature", "properties": { "candidate_id": "C00127", "n_pieces": 1, "n_pixels": 15, "ndvi_drop": 0.40178903937339783, "bsi_rise": 0.11752802133560181, "zscore_median": 3.3785510063171387, "ndvi_before": 0.47554197907447815, "ndvi_after": 0.067743591964244843, "zscore_max": 3.6059482097625732, "break_date": "2021-04-01T00:00:00", "break_index": 21, "area_m2": 1500.0, "probability": null, "pmli_response": -0.0070983225953968887, "dist_road_m": 40.221573683185618, "dist_settlement_m": 3252.5310808946629, "reject_reason": null, "passes_context": true, "evidence_score": 0.49003736178080243, "n_agreeing": 2, "damage_p10": 960289.38496989, "damage_p50": 3743240.005960241, "damage_p90": 7482517.1795530571, "mass_t": 491.35734231621677, "co2e_t": 91.144437977439082, "penalty_kzt": 432500.0, "penalty_article": "ст. 344, ч. 2-1", "removal_status": "active", "removal_confidence": 0.0, "removal_note": "объект активен: признаков устранения нет", "visual_check": "not_landfill", "verify_providers": 2, "verify_confirmed": true, "verify_texture": 0.74008775636967683 }, "geometry": { "type": "Polygon", "coordinates": [ [ [ 71.508442, 51.183302 ], [ 71.508447, 51.183392 ], [ 71.508161, 51.183398 ], [ 71.508314, 51.183574 ], [ 71.508457, 51.183571 ], [ 71.508462, 51.183661 ], [ 71.508743, 51.183565 ], [ 71.508733, 51.183386 ], [ 71.508876, 51.183382 ], [ 71.508871, 51.183293 ], [ 71.509014, 51.18329 ], [ 71.508862, 51.183113 ], [ 71.508581, 51.183209 ], [ 71.508585, 51.183299 ], [ 71.508442, 51.183302 ] ] ] } },
{ "type": "Feature", "properties": { "candidate_id": "C00151", "n_pieces": 1, "n_pixels": 13, "ndvi_drop": 0.28099611401557922, "bsi_rise": 0.067415237426757812, "zscore_median": 3.7861397266387939, "ndvi_before": 0.44125786423683167, "ndvi_after": 0.16187432408332825, "zscore_max": 3.9447340965270996, "break_date": "2020-08-01T00:00:00", "break_index": 18, "area_m2": 1300.0, "probability": null, "pmli_response": -0.047378870525563443, "dist_road_m": 52.423217330021401, "dist_settlement_m": 3034.3951347972907, "reject_reason": null, "passes_context": true, "evidence_score": 0.35750232991718112, "n_agreeing": 1, "damage_p10": 832250.80030723894, "damage_p50": 3244141.338498876, "damage_p90": 6484848.2222793167, "mass_t": 425.84303000738788, "co2e_t": 78.99184624711387, "penalty_kzt": 432500.0, "penalty_article": "ст. 344, ч. 2-1", "removal_status": "active", "removal_confidence": 0.0, "removal_note": "объект активен: признаков устранения нет", "visual_check": "unclear", "verify_providers": 2, "verify_confirmed": true, "verify_texture": 0.75125559605658054 }, "geometry": { "type": "Polygon", "coordinates": [ [ [ 71.518237, 51.166092 ], [ 71.518242, 51.166182 ], [ 71.518385, 51.166179 ], [ 71.51839, 51.166269 ], [ 71.518676, 51.166263 ], [ 71.518671, 51.166173 ], [ 71.518814, 51.16617 ], [ 71.518804, 51.16599 ], [ 71.518513, 51.165907 ], [ 71.518508, 51.165817 ], [ 71.518227, 51.165913 ], [ 71.51838, 51.166089 ], [ 71.518237, 51.166092 ] ] ] } },
{ "type": "Feature", "properties": { "candidate_id": "C00175", "n_pieces": 2, "n_pixels": 22, "ndvi_drop": 0.39841949939727783, "bsi_rise": 0.21490523219108582, "zscore_median": 3.1408252716064453, "ndvi_before": 0.58551263809204102, "ndvi_after": 0.18709316849708557, "zscore_max": 3.3450484275817871, "break_date": "2021-10-01T00:00:00", "break_index": 27, "area_m2": 1100.0, "probability": null, "pmli_response": 0.025687388020438018, "dist_road_m": 118.96078292640901, "dist_settlement_m": 3271.4446947438291, "reject_reason": null, "passes_context": true, "evidence_score": 0.83393520975843127, "n_agreeing": 3, "damage_p10": 704212.21564458648, "damage_p50": 2745042.671037511, "damage_p90": 5487179.2650055755, "mass_t": 360.32871769855899, "co2e_t": 66.839254516788657, "penalty_kzt": 432500.0, "penalty_article": "ст. 344, ч. 2-1", "removal_status": "active", "removal_confidence": 0.0, "removal_note": "объект активен: признаков устранения нет", "visual_check": "not_landfill", "verify_providers": 2, "verify_confirmed": false, "verify_texture": 0.29003916673051816 }, "geometry": { "type": "Polygon", "coordinates": [ [ [ 71.610489, 51.165778 ], [ 71.610494, 51.165868 ], [ 71.610775, 51.165771 ], [ 71.61077, 51.165682 ], [ 71.610479, 51.165598 ], [ 71.610474, 51.165508 ], [ 71.610188, 51.165515 ], [ 71.610055, 51.165698 ], [ 71.610198, 51.165694 ], [ 71.610203, 51.165784 ], [ 71.610489, 51.165778 ] ] ] } },
{ "type": "Feature", "properties": { "candidate_id": "C00177", "n_pieces": 1, "n_pixels": 11, "ndvi_drop": 0.29274278879165649, "bsi_rise": 0.079128354787826538, "zscore_median": 4.0130681991577148, "ndvi_before": 0.47253641486167908, "ndvi_after": 0.17391881346702576, "zscore_max": 4.1072864532470703, "break_date": "2020-08-01T00:00:00", "break_index": 18, "area_m2": 1100.0, "probability": null, "pmli_response": -0.033887066603119825, "dist_road_m": 73.485482385439539, "dist_settlement_m": 3127.8702125357945, "reject_reason": null, "passes_context": true, "evidence_score": 0.38430712904248915, "n_agreeing": 2, "damage_p10": 704212.21564458648, "damage_p50": 2745042.671037511, "damage_p90": 5487179.2650055755, "mass_t": 360.32871769855899, "co2e_t": 66.839254516788657, "penalty_kzt": 432500.0, "penalty_article": "ст. 344, ч. 2-1", "removal_status": "active", "removal_confidence": 0.0, "removal_note": "объект активен: признаков устранения нет", "visual_check": "unclear", "verify_providers": 2, "verify_confirmed": true, "verify_texture": 0.75125559605658054 }, "geometry": { "type": "Polygon", "coordinates": [ [ [ 71.519262, 51.16652 ], [ 71.519415, 51.166697 ], [ 71.519695, 51.166601 ], [ 71.519691, 51.166511 ], [ 71.519833, 51.166508 ], [ 71.519824, 51.166328 ], [ 71.519681, 51.166331 ], [ 71.519676, 51.166241 ], [ 71.519395, 51.166337 ], [ 71.519405, 51.166517 ], [ 71.519262, 51.16652 ] ] ] } },
{ "type": "Feature", "properties": { "candidate_id": "C00178", "n_pieces": 1, "n_pixels": 11, "ndvi_drop": 0.39082351326942444, "bsi_rise": 0.10520310699939728, "zscore_median": 3.8204987049102783, "ndvi_before": 0.4510643482208252, "ndvi_after": 0.058659307658672333, "zscore_max": 3.9862930774688721, "break_date": "2020-09-01T00:00:00", "break_index": 19, "area_m2": 1100.0, "probability": null, "pmli_response": -0.044351153257883469, "dist_road_m": 0.0, "dist_settlement_m": 2798.0714805658613, "reject_reason": null, "passes_context": true, "evidence_score": 0.47360414266586304, "n_agreeing": 2, "damage_p10": 704212.21564458648, "damage_p50": 2745042.671037511, "damage_p90": 5487179.2650055755, "mass_t": 360.32871769855899, "co2e_t": 66.839254516788657, "penalty_kzt": 432500.0, "penalty_article": "ст. 344, ч. 2-1", "removal_status": "active", "removal_confidence": 0.0, "removal_note": "объект активен: признаков устранения нет", "visual_check": "landfill", "verify_providers": 2, "verify_confirmed": true, "verify_texture": 0.76909049765931237 }, "geometry": { "type": "Polygon", "coordinates": [ [ [ 71.515577, 51.164531 ], [ 71.515582, 51.164621 ], [ 71.515439, 51.164624 ], [ 71.515592, 51.1648 ], [ 71.515873, 51.164704 ], [ 71.515868, 51.164615 ], [ 71.516011, 51.164611 ], [ 71.516006, 51.164522 ], [ 71.516149, 51.164519 ], [ 71.515996, 51.164342 ], [ 71.515715, 51.164438 ], [ 71.51572, 51.164528 ], [ 71.515577, 51.164531 ] ] ] } },
{ "type": "Feature", "properties": { "candidate_id": "C00189", "n_pieces": 1, "n_pixels": 10, "ndvi_drop": 0.348946213722229, "bsi_rise": 0.12280797958374023, "zscore_median": 5.1335926055908203, "ndvi_before": 0.37719681859016418, "ndvi_after": 0.00074086588574573398, "zscore_max": 5.342524528503418, "break_date": "2019-07-01T00:00:00", "break_index": 10, "area_m2": 1000.0, "probability": null, "pmli_response": 0.0068154660422113794, "dist_road_m": 108.75647535202613, "dist_settlement_m": 1824.1354361776607, "reject_reason": null, "passes_context": true, "evidence_score": 0.55286925048458568, "n_agreeing": 2, "damage_p10": 640192.92331326054, "damage_p50": 2495493.3373068278, "damage_p90": 4988344.7863687063, "mass_t": 327.57156154414452, "co2e_t": 60.762958651626057, "penalty_kzt": 432500.0, "penalty_article": "ст. 344, ч. 2-1", "removal_status": "active", "removal_confidence": 0.0, "removal_note": "объект активен: признаков устранения нет", "visual_check": "not_landfill", "verify_providers": 2, "verify_confirmed": true, "verify_texture": 0.54286988571079231 }, "geometry": { "type": "Polygon", "coordinates": [ [ [ 71.486917, 51.208765 ], [ 71.486922, 51.208855 ], [ 71.487208, 51.208849 ], [ 71.487203, 51.208759 ], [ 71.487346, 51.208756 ], [ 71.487193, 51.208579 ], [ 71.48705, 51.208582 ], [ 71.487045, 51.208492 ], [ 71.486764, 51.208588 ], [ 71.486774, 51.208768 ], [ 71.486917, 51.208765 ] ] ] } }
]
}
