{
"type": "FeatureCollection",
"name": "patrol",
"crs": { "type": "name", "properties": { "name": "urn:ogc:def:crs:OGC:1.3:CRS84" } },
"features": [
{ "type": "Feature", "properties": { "rank": 1, "dist_road_m": 36.0, "dist_settlement_m": 3329.0, "density_3km": 3.0 }, "geometry": { "type": "Polygon", "coordinates": [ [ [ 71.613365223758521, 51.164279907672309 ], [ 71.613619233512821, 51.16877134754494 ], [ 71.606475078864534, 51.168930843517749 ], [ 71.606221761509786, 51.164439378214645 ], [ 71.613365223758521, 51.164279907672309 ] ] ] } },
{ "type": "Feature", "properties": { "rank": 2, "dist_road_m": 378.0, "dist_settlement_m": 2799.0, "density_3km": 3.0 }, "geometry": { "type": "Polygon", "coordinates": [ [ [ 71.582418715069323, 51.25041191779038 ], [ 71.58267049170523, 51.254903401409351 ], [ 71.575512821307939, 51.255061195209649 ], [ 71.575261740568109, 51.250569686414494 ], [ 71.582418715069323, 51.25041191779038 ] ] ] } },
{ "type": "Feature", "properties": { "rank": 3, "dist_road_m": 21.0, "dist_settlement_m": 2864.0, "density_3km": 26.0 }, "geometry": { "type": "Polygon", "coordinates": [ [ [ 71.52025023740228, 51.161827256432424 ], [ 71.520495181209029, 51.166319025805684 ], [ 71.513350885463524, 51.166472829583149 ], [ 71.513106634160863, 51.161981035685663 ], [ 71.52025023740228, 51.161827256432424 ] ] ] } },
{ "type": "Feature", "properties": { "rank": 4, "dist_road_m": 35.0, "dist_settlement_m": 3766.0, "density_3km": 1.0 }, "geometry": { "type": "Polygon", "coordinates": [ [ [ 71.375535776600259, 51.268286208794919 ], [ 71.375767542768344, 51.272778381598563 ], [ 71.368605977249317, 51.272923559954336 ], [ 71.368374908127365, 51.268431363980504 ], [ 71.375535776600259, 51.268286208794919 ] ] ] } },
{ "type": "Feature", "properties": { "rank": 5, "dist_road_m": 373.0, "dist_settlement_m": 4448.0, "density_3km": 2.0 }, "geometry": { "type": "Polygon", "coordinates": [ [ [ 71.663108830187369, 51.158660146547639 ], [ 71.663367619513949, 51.163151410876559 ], [ 71.656224618504595, 51.163313932102653 ], [ 71.655966521243883, 51.158822641863026 ], [ 71.663108830187369, 51.158660146547639 ] ] ] } },
{ "type": "Feature", "properties": { "rank": 6, "dist_road_m": 5.0, "dist_settlement_m": 1741.0, "density_3km": 13.0 }, "geometry": { "type": "Polygon", "coordinates": [ [ [ 71.493129425518347, 51.189390895921143 ], [ 71.493371973526479, 51.193882737207815 ], [ 71.486223268093994, 51.194034942635184 ], [ 71.485981413742209, 51.189543077073573 ], [ 71.493129425518347, 51.189390895921143 ] ] ] } },
{ "type": "Feature", "properties": { "rank": 7, "dist_road_m": 342.0, "dist_settlement_m": 6762.0, "density_3km": 1.0 }, "geometry": { "type": "Polygon", "coordinates": [ [ [ 71.475540118609914, 51.261716238940444 ], [ 71.475781578997228, 51.266208084326244 ], [ 71.468621563456352, 51.266359366163186 ], [ 71.468380799646326, 51.2618674966361 ], [ 71.475540118609914, 51.261716238940444 ] ] ] } },
{ "type": "Feature", "properties": { "rank": 8, "dist_road_m": 47.0, "dist_settlement_m": 3461.0, "density_3km": 21.0 }, "geometry": { "type": "Polygon", "coordinates": [ [ [ 71.514084016684492, 51.179948185425282 ], [ 71.514328519600156, 51.184439962088625 ], [ 71.507181389103934, 51.184593427763993 ], [ 71.506937579424971, 51.180101626626865 ], [ 71.514084016684492, 51.179948185425282 ] ] ] } },
{ "type": "Feature", "properties": { "rank": 9, "dist_road_m": 15.0, "dist_settlement_m": 1436.0, "density_3km": 12.0 }, "geometry": { "type": "Polygon", "coordinates": [ [ [ 71.486707163678844, 51.203018660886876 ], [ 71.486949204954186, 51.207510513576608 ], [ 71.479798355133454, 51.207662355227377 ], [ 71.479557008070216, 51.203170478318093 ], [ 71.486707163678844, 51.203018660886876 ] ] ] } },
{ "type": "Feature", "properties": { "rank": 10, "dist_road_m": 74.0, "dist_settlement_m": 2372.0, "density_3km": 3.0 }, "geometry": { "type": "Polygon", "coordinates": [ [ [ 71.652950590813674, 51.230845230573195 ], [ 71.65320905862707, 51.23533647621985 ], [ 71.646054826987935, 51.235498538901176 ], [ 71.645797054133254, 51.231007267402539 ], [ 71.652950590813674, 51.230845230573195 ] ] ] } },
{ "type": "Feature", "properties": { "rank": 11, "dist_road_m": 27.0, "dist_settlement_m": 2136.0, "density_3km": 18.0 }, "geometry": { "type": "Polygon", "coordinates": [ [ [ 71.492644516812007, 51.180407200463016 ], [ 71.492886939953891, 51.184899050339482 ], [ 71.485739621656052, 51.185051207221683 ], [ 71.485497891814447, 51.18055933307965 ], [ 71.492644516812007, 51.180407200463016 ] ] ] } },
{ "type": "Feature", "properties": { "rank": 12, "dist_road_m": 13.0, "dist_settlement_m": 3767.0, "density_3km": 26.0 }, "geometry": { "type": "Polygon", "coordinates": [ [ [ 71.527885113421704, 51.170656526530294 ], [ 71.528130876186083, 51.17514826267427 ], [ 71.520985257990944, 51.175302551612987 ], [ 71.520740188064792, 51.170810790865936 ], [ 71.527885113421704, 51.170656526530294 ] ] ] } },
{ "type": "Feature", "properties": { "rank": 13, "dist_road_m": 182.0, "dist_settlement_m": 2047.0, "density_3km": 21.0 }, "geometry": { "type": "Polygon", "coordinates": [ [ [ 71.548328782289872, 51.152224426443787 ], [ 71.548576368443889, 51.156716105690329 ], [ 71.541433710619827, 51.156871603654338 ], [ 71.541186816528935, 51.152379899615752 ], [ 71.548328782289872, 51.152224426443787 ] ] ] } },
{ "type": "Feature", "properties": { "rank": 14, "dist_road_m": 21.0, "dist_settlement_m": 3084.0, "density_3km": 27.0 }, "geometry": { "type": "Polygon", "coordinates": [ [ [ 71.520495181209029, 51.166319025805684 ], [ 71.520740188064792, 51.170810790865936 ], [ 71.513595199637493, 51.170964619172366 ], [ 71.513350885463524, 51.166472829583149 ], [ 71.520495181209029, 51.166319025805684 ] ] ] } },
{ "type": "Feature", "properties": { "rank": 15, "dist_road_m": 30.0, "dist_settlement_m": 2889.0, "density_3km": 22.0 }, "geometry": { "type": "Polygon", "coordinates": [ [ [ 71.54907173192359, 51.165699451188033 ], [ 71.549319509292431, 51.170191117438819 ], [ 71.542174774213308, 51.170346689807644 ], [ 71.541927689440485, 51.165854998750468 ], [ 71.54907173192359, 51.165699451188033 ] ] ] } },
{ "type": "Feature", "properties": { "rank": 16, "dist_road_m": 341.0, "dist_settlement_m": 2588.0, "density_3km": 3.0 }, "geometry": { "type": "Polygon", "coordinates": [ [ [ 71.660104060910086, 51.230682756909694 ], [ 71.66036322365963, 51.235173976634869 ], [ 71.65320905862707, 51.23533647621985 ], [ 71.652950590813674, 51.230845230573195 ], [ 71.660104060910086, 51.230682756909694 ] ] ] } },
{ "type": "Feature", "properties": { "rank": 17, "dist_road_m": 102.0, "dist_settlement_m": 3930.0, "density_3km": 22.0 }, "geometry": { "type": "Polygon", "coordinates": [ [ [ 71.521230391008828, 51.179794308046695 ], [ 71.521475587139832, 51.184286060166848 ], [ 71.514328519600156, 51.184439962088625 ], [ 71.514084016684492, 51.179948185425282 ], [ 71.521230391008828, 51.179794308046695 ] ] ] } },
{ "type": "Feature", "properties": { "rank": 18, "dist_road_m": 88.0, "dist_settlement_m": 4203.0, "density_3km": 3.0 }, "geometry": { "type": "Polygon", "coordinates": [ [ [ 71.560697973088566, 51.246392348726992 ], [ 71.560947597619716, 51.250883912006131 ], [ 71.553790429530139, 51.251040368955159 ], [ 71.553541500781975, 51.246548780713447 ], [ 71.560697973088566, 51.246392348726992 ] ] ] } },
{ "type": "Feature", "properties": { "rank": 19, "dist_road_m": 30.0, "dist_settlement_m": 3666.0, "density_3km": 26.0 }, "geometry": { "type": "Polygon", "coordinates": [ [ [ 71.520985257990944, 51.175302551612987 ], [ 71.521230391008828, 51.179794308046695 ], [ 71.514084016684492, 51.179948185425282 ], [ 71.513839576704044, 51.175456404453129 ], [ 71.520985257990944, 51.175302551612987 ] ] ] } },
{ "type": "Feature", "properties": { "rank": 20, "dist_road_m": 138.0, "dist_settlement_m": 2236.0, "density_3km": 15.0 }, "geometry": { "type": "Polygon", "coordinates": [ [ [ 71.500277374850782, 51.189238278425918 ], [ 71.500520616494128, 51.193730095368217 ], [ 71.493371973526479, 51.193882737207815 ], [ 71.493129425518347, 51.189390895921143 ], [ 71.500277374850782, 51.189238278425918 ] ] ] } }
]
}
