{
"type": "FeatureCollection",
"name": "registry",
"crs": { "type": "name", "properties": { "name": "urn:ogc:def:crs:OGC:1.3:CRS84" } },
"features": [
{ "type": "Feature", "properties": { "name": null, "landuse": "landfill", "amenity": null, "source": "OpenStreetMap", "area_m2": 1070700.3811833062 }, "geometry": { "type": "Polygon", "coordinates": [ [ [ 71.526203, 51.196882 ], [ 71.526206, 51.196737 ], [ 71.526099, 51.196606 ], [ 71.525285, 51.196363 ], [ 71.5249, 51.196223 ], [ 71.524656, 51.19607 ], [ 71.522528, 51.194287 ], [ 71.522316, 51.194231 ], [ 71.522067, 51.194257 ], [ 71.521818, 51.194338 ], [ 71.513874, 51.198022 ], [ 71.513587, 51.198234 ], [ 71.51349, 51.198516 ], [ 71.513464, 51.199075 ], [ 71.513145, 51.19943 ], [ 71.51311, 51.20907 ], [ 71.513391, 51.209142 ], [ 71.513863, 51.209201 ], [ 71.516824, 51.210038 ], [ 71.518003, 51.210271 ], [ 71.518873, 51.210401 ], [ 71.519122, 51.21039 ], [ 71.519366, 51.210309 ], [ 71.519532, 51.210159 ], [ 71.526203, 51.196882 ] ] ] } },
{ "type": "Feature", "properties": { "name": "Эко", "landuse": null, "amenity": "waste_transfer_station", "source": "OpenStreetMap", "area_m2": 355.89208738730457 }, "geometry": { "type": "Polygon", "coordinates": [ [ [ 71.523668, 51.218116 ], [ 71.523915, 51.217901 ], [ 71.523775, 51.217838 ], [ 71.523528, 51.218052 ], [ 71.523668, 51.218116 ] ] ] } },
{ "type": "Feature", "properties": { "name": null, "landuse": "landfill", "amenity": null, "source": "OpenStreetMap", "area_m2": 261697.07480465563 }, "geometry": { "type": "Polygon", "coordinates": [ [ [ 71.529643, 51.214655 ], [ 71.529481, 51.214617 ], [ 71.527843, 51.214674 ], [ 71.526044, 51.216336 ], [ 71.523769, 51.218566 ], [ 71.523805, 51.218759 ], [ 71.523987, 51.218905 ], [ 71.528061, 51.220785 ], [ 71.528373, 51.220777 ], [ 71.528626, 51.220634 ], [ 71.530389, 51.218671 ], [ 71.53091, 51.218853 ], [ 71.533903, 51.216521 ], [ 71.529643, 51.214655 ] ] ] } },
{ "type": "Feature", "properties": { "name": null, "landuse": "landfill", "amenity": null, "source": "OpenStreetMap", "area_m2": 794109.14568789082 }, "geometry": { "type": "Polygon", "coordinates": [ [ [ 71.51311, 51.20907 ], [ 71.513145, 51.19943 ], [ 71.513091, 51.198732 ], [ 71.512948, 51.198402 ], [ 71.512661, 51.19821 ], [ 71.511971, 51.198067 ], [ 71.511418, 51.198136 ], [ 71.501609, 51.202021 ], [ 71.501258, 51.202246 ], [ 71.501056, 51.202462 ], [ 71.500952, 51.202731 ], [ 71.500229, 51.204984 ], [ 71.500229, 51.205318 ], [ 71.500392, 51.205576 ], [ 71.500678, 51.205759 ], [ 71.509275, 51.209382 ], [ 71.509646, 51.209468 ], [ 71.51005, 51.209488 ], [ 71.512759, 51.209513 ], [ 71.513072, 51.209391 ], [ 71.51311, 51.20907 ] ] ] } },
{ "type": "Feature", "properties": { "name": null, "landuse": null, "amenity": "waste_disposal", "source": "OpenStreetMap", "area_m2": 7.5960728451160557 }, "geometry": { "type": "Polygon", "coordinates": [ [ [ 71.379222, 51.213442 ], [ 71.379246, 51.21343 ], [ 71.379215, 51.213406 ], [ 71.379191, 51.213418 ], [ 71.379222, 51.213442 ] ] ] } },
{ "type": "Feature", "properties": { "name": null, "landuse": "landfill", "amenity": null, "source": "OpenStreetMap", "area_m2": 205709.2514847189 }, "geometry": { "type": "Polygon", "coordinates": [ [ [ 71.175849, 51.250661 ], [ 71.176482, 51.251199 ], [ 71.178832, 51.25097 ], [ 71.181278, 51.250178 ], [ 71.18293, 51.249305 ], [ 71.179111, 51.246451 ], [ 71.175538, 51.247243 ], [ 71.173457, 51.248794 ], [ 71.175474, 51.249976 ], [ 71.175849, 51.250661 ] ] ] } },
{ "type": "Feature", "properties": { "name": null, "landuse": "landfill", "amenity": null, "source": "OpenStreetMap", "area_m2": 419641.18911476486 }, "geometry": { "type": "Polygon", "coordinates": [ [ [ 71.277924, 51.218631 ], [ 71.282837, 51.218175 ], [ 71.288524, 51.217664 ], [ 71.292279, 51.214949 ], [ 71.292429, 51.212959 ], [ 71.288416, 51.210741 ], [ 71.277924, 51.218631 ] ] ] } },
{ "type": "Feature", "properties": { "name": null, "landuse": "landfill", "amenity": null, "source": "OpenStreetMap", "area_m2": 428582.33748530393 }, "geometry": { "type": "Polygon", "coordinates": [ [ [ 71.259095, 51.223416 ], [ 71.263526, 51.221481 ], [ 71.26521, 51.221004 ], [ 71.272972, 51.217469 ], [ 71.274131, 51.218463 ], [ 71.275982, 51.220869 ], [ 71.268386, 51.22474 ], [ 71.259095, 51.223416 ] ] ] } },
{ "type": "Feature", "properties": { "name": null, "landuse": null, "amenity": "waste_disposal", "source": "OpenStreetMap", "area_m2": 53.803804426294668 }, "geometry": { "type": "Polygon", "coordinates": [ [ [ 71.463289, 51.119101 ], [ 71.463351, 51.119093 ], [ 71.463318, 51.118987 ], [ 71.463255, 51.118995 ], [ 71.463289, 51.119101 ] ] ] } },
{ "type": "Feature", "properties": { "name": null, "landuse": null, "amenity": "waste_disposal", "source": "OpenStreetMap", "area_m2": 20.745969377961799 }, "geometry": { "type": "Polygon", "coordinates": [ [ [ 71.461251, 51.119157 ], [ 71.461374, 51.119136 ], [ 71.461365, 51.119116 ], [ 71.461242, 51.119137 ], [ 71.461251, 51.119157 ] ] ] } },
{ "type": "Feature", "properties": { "name": null, "landuse": null, "amenity": "waste_disposal", "source": "OpenStreetMap", "area_m2": 94.532882851237332 }, "geometry": { "type": "Polygon", "coordinates": [ [ [ 71.462433, 51.111302 ], [ 71.46273, 51.111233 ], [ 71.462713, 51.111198 ], [ 71.462411, 51.111266 ], [ 71.462433, 51.111302 ] ] ] } },
{ "type": "Feature", "properties": { "name": null, "landuse": null, "amenity": "waste_disposal", "source": "OpenStreetMap", "area_m2": 19.351152563053901 }, "geometry": { "type": "Polygon", "coordinates": [ [ [ 71.458135, 51.113523 ], [ 71.458233, 51.113564 ], [ 71.458252, 51.113547 ], [ 71.458154, 51.113506 ], [ 71.458135, 51.113523 ] ] ] } },
{ "type": "Feature", "properties": { "name": null, "landuse": null, "amenity": "waste_disposal", "source": "OpenStreetMap", "area_m2": 61.256788047952647 }, "geometry": { "type": "Polygon", "coordinates": [ [ [ 71.460418, 51.111872 ], [ 71.460455, 51.111906 ], [ 71.460298, 51.111974 ], [ 71.460261, 51.111939 ], [ 71.460418, 51.111872 ] ] ] } },
{ "type": "Feature", "properties": { "name": null, "landuse": null, "amenity": "waste_disposal", "source": "OpenStreetMap", "area_m2": 20.75318488214528 }, "geometry": { "type": "Polygon", "coordinates": [ [ [ 71.462857, 51.119552 ], [ 71.462845, 51.119632 ], [ 71.462878, 51.119634 ], [ 71.46289, 51.119554 ], [ 71.462857, 51.119552 ] ] ] } },
{ "type": "Feature", "properties": { "name": null, "landuse": null, "amenity": "waste_disposal", "source": "OpenStreetMap", "area_m2": 104.32928382024764 }, "geometry": { "type": "Polygon", "coordinates": [ [ [ 71.443401, 51.16373 ], [ 71.443458, 51.163504 ], [ 71.4434, 51.163499 ], [ 71.443343, 51.163725 ], [ 71.443401, 51.16373 ] ] ] } },
{ "type": "Feature", "properties": { "name": null, "landuse": null, "amenity": "waste_disposal", "source": "OpenStreetMap", "area_m2": 19.09305046048922 }, "geometry": { "type": "Polygon", "coordinates": [ [ [ 71.428297, 51.16655 ], [ 71.42839, 51.166557 ], [ 71.428396, 51.166531 ], [ 71.428303, 51.166524 ], [ 71.428297, 51.16655 ] ] ] } },
{ "type": "Feature", "properties": { "name": null, "landuse": null, "amenity": "waste_disposal", "source": "OpenStreetMap", "area_m2": 123.88131067889108 }, "geometry": { "type": "Polygon", "coordinates": [ [ [ 71.428391, 51.084679 ], [ 71.428363, 51.08467 ], [ 71.428332, 51.084667 ], [ 71.428302, 51.084671 ], [ 71.428275, 51.084681 ], [ 71.428256, 51.084697 ], [ 71.428246, 51.084715 ], [ 71.428246, 51.084735 ], [ 71.428256, 51.084752 ], [ 71.428274, 51.084766 ], [ 71.428298, 51.084776 ], [ 71.428325, 51.08478 ], [ 71.428354, 51.084779 ], [ 71.42838, 51.084773 ], [ 71.428402, 51.084762 ], [ 71.428418, 51.084747 ], [ 71.428425, 51.084729 ], [ 71.428424, 51.084712 ], [ 71.428412, 51.084693 ], [ 71.428391, 51.084679 ] ] ] } },
{ "type": "Feature", "properties": { "name": null, "landuse": null, "amenity": "waste_disposal", "source": "OpenStreetMap", "area_m2": 123.92109312937761 }, "geometry": { "type": "Polygon", "coordinates": [ [ [ 71.428059, 51.083792 ], [ 71.428032, 51.083783 ], [ 71.428001, 51.08378 ], [ 71.42797, 51.083784 ], [ 71.427943, 51.083795 ], [ 71.427924, 51.08381 ], [ 71.427914, 51.083828 ], [ 71.427915, 51.083848 ], [ 71.427925, 51.083865 ], [ 71.427943, 51.083879 ], [ 71.427966, 51.083889 ], [ 71.427994, 51.083893 ], [ 71.428022, 51.083893 ], [ 71.428049, 51.083886 ], [ 71.428071, 51.083875 ], [ 71.428087, 51.08386 ], [ 71.428094, 51.083843 ], [ 71.428092, 51.083825 ], [ 71.42808, 51.083807 ], [ 71.428059, 51.083792 ] ] ] } },
{ "type": "Feature", "properties": { "name": null, "landuse": null, "amenity": "waste_disposal", "source": "OpenStreetMap", "area_m2": 3.4134125707428136 }, "geometry": { "type": "Polygon", "coordinates": [ [ [ 71.42982, 51.081268 ], [ 71.429816, 51.081266 ], [ 71.429811, 51.081266 ], [ 71.429806, 51.081266 ], [ 71.429801, 51.081267 ], [ 71.429797, 51.08127 ], [ 71.429795, 51.081273 ], [ 71.429795, 51.081276 ], [ 71.429796, 51.081279 ], [ 71.429799, 51.081281 ], [ 71.429802, 51.081283 ], [ 71.429807, 51.081284 ], [ 71.429811, 51.081284 ], [ 71.429816, 51.081284 ], [ 71.42982, 51.081282 ], [ 71.429823, 51.08128 ], [ 71.429825, 51.081277 ], [ 71.429825, 51.081274 ], [ 71.429823, 51.081271 ], [ 71.42982, 51.081268 ] ] ] } },
{ "type": "Feature", "properties": { "name": null, "landuse": null, "amenity": "waste_disposal", "source": "OpenStreetMap", "area_m2": 3.4086951462708996 }, "geometry": { "type": "Polygon", "coordinates": [ [ [ 71.429828, 51.081287 ], [ 71.429824, 51.081285 ], [ 71.429819, 51.081285 ], [ 71.429813, 51.081285 ], [ 71.429809, 51.081286 ], [ 71.429805, 51.081289 ], [ 71.429803, 51.081292 ], [ 71.429803, 51.081295 ], [ 71.429804, 51.081298 ], [ 71.429806, 51.0813 ], [ 71.42981, 51.081302 ], [ 71.429815, 51.081303 ], [ 71.429819, 51.081303 ], [ 71.429824, 51.081302 ], [ 71.429828, 51.081301 ], [ 71.429831, 51.081299 ], [ 71.429832, 51.081296 ], [ 71.429833, 51.081293 ], [ 71.429831, 51.08129 ], [ 71.429828, 51.081287 ] ] ] } },
{ "type": "Feature", "properties": { "name": null, "landuse": null, "amenity": "waste_disposal", "source": "OpenStreetMap", "area_m2": 3.4157873639782759 }, "geometry": { "type": "Polygon", "coordinates": [ [ [ 71.429836, 51.081306 ], [ 71.429832, 51.081304 ], [ 71.429827, 51.081303 ], [ 71.429822, 51.081304 ], [ 71.429817, 51.081305 ], [ 71.429813, 51.081307 ], [ 71.429811, 51.08131 ], [ 71.429811, 51.081313 ], [ 71.429812, 51.081316 ], [ 71.429815, 51.081319 ], [ 71.429818, 51.081321 ], [ 71.429823, 51.081322 ], [ 71.429827, 51.081322 ], [ 71.429832, 51.081321 ], [ 71.429836, 51.08132 ], [ 71.429839, 51.081317 ], [ 71.429841, 51.081314 ], [ 71.429841, 51.081312 ], [ 71.429839, 51.081308 ], [ 71.429836, 51.081306 ] ] ] } },
{ "type": "Feature", "properties": { "name": null, "landuse": null, "amenity": "waste_disposal", "source": "OpenStreetMap", "area_m2": 52.434456464425651 }, "geometry": { "type": "Polygon", "coordinates": [ [ [ 71.396145, 51.13259 ], [ 71.39634, 51.132558 ], [ 71.396324, 51.132526 ], [ 71.396129, 51.132558 ], [ 71.396145, 51.13259 ] ] ] } },
{ "type": "Feature", "properties": { "name": null, "landuse": null, "amenity": "waste_disposal", "source": "OpenStreetMap", "area_m2": 41.870763475774467 }, "geometry": { "type": "Polygon", "coordinates": [ [ [ 71.397749, 51.137099 ], [ 71.397913, 51.137077 ], [ 71.397908, 51.137046 ], [ 71.397735, 51.137069 ], [ 71.397749, 51.137099 ] ] ] } },
{ "type": "Feature", "properties": { "name": null, "landuse": null, "amenity": "waste_disposal", "source": "OpenStreetMap", "area_m2": 59.405005095320924 }, "geometry": { "type": "Polygon", "coordinates": [ [ [ 71.392586, 51.132595 ], [ 71.392645, 51.132588 ], [ 71.392595, 51.13246 ], [ 71.39254, 51.132467 ], [ 71.392586, 51.132595 ] ] ] } },
{ "type": "Feature", "properties": { "name": null, "landuse": null, "amenity": "waste_disposal", "source": "OpenStreetMap", "area_m2": 60.218788228225009 }, "geometry": { "type": "Polygon", "coordinates": [ [ [ 71.398656, 51.120046 ], [ 71.398642, 51.120011 ], [ 71.398846, 51.119982 ], [ 71.398858, 51.120019 ], [ 71.398656, 51.120046 ] ] ] } },
{ "type": "Feature", "properties": { "name": "Пункт приема цветного и черного металла", "landuse": null, "amenity": "recycling", "source": "OpenStreetMap", "area_m2": 75.257454990297106 }, "geometry": { "type": "Polygon", "coordinates": [ [ [ 71.355629, 50.970153 ], [ 71.355594, 50.97006 ], [ 71.355692, 50.970045 ], [ 71.355727, 50.970138 ], [ 71.355629, 50.970153 ] ] ] } },
{ "type": "Feature", "properties": { "name": null, "landuse": null, "amenity": "waste_disposal", "source": "OpenStreetMap", "area_m2": 10.293354127302534 }, "geometry": { "type": "Polygon", "coordinates": [ [ [ 71.428157, 51.094004 ], [ 71.42815, 51.093984 ], [ 71.428214, 51.093974 ], [ 71.428221, 51.093994 ], [ 71.428157, 51.094004 ] ] ] } }
]
}
