{
"type": "FeatureCollection",
"name": "candidates",
"crs": { "type": "name", "properties": { "name": "urn:ogc:def:crs:OGC:1.3:CRS84" } },
"features": [
{ "type": "Feature", "properties": { "candidate_id": "D00015", "area_m2": 8444.1383244331319, "break_date": "2022-04-21", "probability": 0.88692107850089996, "ndvi_drop": 0.24851899871553426, "bsi_rise": 0.21017925096893009, "pmli_response": 0.14883079324663934, "sar_incoherence": 0.14267277269344397, "thermal_anomaly": 2.1928274682599191, "verify_providers": 2, "verify_texture": 0.36270209095164385, "damage_p10": 5284154.9396457346, "damage_p50": 21010072.246152505, "damage_p90": 42214396.825389259, "mass_t": 2779.1922382348976, "co2e_t": 518.35153427107991, "penalty_kzt": 432500.0, "penalty_article": "ст. 344, ч. 2-1", "is_demo": true }, "geometry": { "type": "Polygon", "coordinates": [ [ [ 70.915441706486419, 50.925301276452089 ], [ 70.915406263313045, 50.924677173337834 ], [ 70.914880797382253, 50.924491469401218 ], [ 70.914498702884032, 50.92459861824198 ], [ 70.914515300700131, 50.924558741997039 ], [ 70.914356701595423, 50.924626155954925 ], [ 70.914412759978148, 50.925894251205307 ], [ 70.915441706486419, 50.925301276452089 ] ] ] } },
{ "type": "Feature", "properties": { "candidate_id": "D00000", "area_m2": 23554.400575079548, "break_date": "2024-05-07", "probability": 0.8260214875522387, "ndvi_drop": 0.34335248032044186, "bsi_rise": 0.16227352589655991, "pmli_response": 0.062866887113475711, "sar_incoherence": 0.29717996742676556, "thermal_anomaly": 2.3323091855533487, "verify_providers": 0, "verify_texture": 0.61577993158553412, "damage_p10": 15905855.251784241, "damage_p50": 58147884.495138124, "damage_p90": 115669556.97227252, "mass_t": 7625.5038036984879, "co2e_t": 1421.8833584130473, "penalty_kzt": 432500.0, "penalty_article": "ст. 344, ч. 2-1", "is_demo": true }, "geometry": { "type": "Polygon", "coordinates": [ [ [ 71.784388791084396, 51.112576318752438 ], [ 71.784752856255508, 51.111990728037028 ], [ 71.783533365325198, 51.111492573234763 ], [ 71.783372246630705, 51.111329658727399 ], [ 71.782700055532814, 51.111137747929114 ], [ 71.781874419316068, 51.112497848500411 ], [ 71.784670926246875, 51.112977971475573 ], [ 71.784388791084396, 51.112576318752438 ] ] ] } },
{ "type": "Feature", "properties": { "candidate_id": "D00011", "area_m2": 3602.4928761782735, "break_date": "2020-03-21", "probability": 0.8152840044215055, "ndvi_drop": 0.1993017826131081, "bsi_rise": 0.20911751712088308, "pmli_response": 0.072373957699793628, "sar_incoherence": 0.52568706402009791, "thermal_anomaly": 2.5508689887312599, "verify_providers": 3, "verify_texture": 0.87771630837642434, "damage_p10": 2317515.4185429234, "damage_p50": 8925155.8725714609, "damage_p90": 18049542.311600663, "mass_t": 1166.4464136615563, "co2e_t": 217.06106349809943, "penalty_kzt": 432500.0, "penalty_article": "ст. 344, ч. 2-1", "is_demo": true }, "geometry": { "type": "Polygon", "coordinates": [ [ [ 71.074292968281028, 51.148202026244668 ], [ 71.073753407481931, 51.146978956839725 ], [ 71.073396247521927, 51.14797356673926 ], [ 71.07358839623231, 51.147909106761475 ], [ 71.073680982006138, 51.147846189500285 ], [ 71.073781095486169, 51.147962455960659 ], [ 71.073851119769742, 51.14817092585897 ], [ 71.074292968281028, 51.148202026244668 ] ] ] } },
{ "type": "Feature", "properties": { "candidate_id": "D00007", "area_m2": 3216.1645440309076, "break_date": "2024-03-16", "probability": 0.80258982638454246, "ndvi_drop": 0.29931085124695583, "bsi_rise": 0.1457915283333211, "pmli_response": 0.066893076225521569, "sar_incoherence": 0.50041367379569057, "thermal_anomaly": 2.3381154370039261, "verify_providers": 3, "verify_texture": 0.79073165933969392, "damage_p10": 2150161.6803756999, "damage_p50": 7988904.4253313541, "damage_p90": 16343978.826088015, "mass_t": 1048.5507056494221, "co2e_t": 195.10220739766925, "penalty_kzt": 432500.0, "penalty_article": "ст. 344, ч. 2-1", "is_demo": true }, "geometry": { "type": "Polygon", "coordinates": [ [ [ 71.601236173704663, 51.346582421965628 ], [ 71.601256849158958, 51.346515711781272 ], [ 71.600933679540233, 51.346212694800407 ], [ 71.600230640356614, 51.346582028747264 ], [ 71.600672095124622, 51.34689047458339 ], [ 71.600916499087361, 51.346803050119902 ], [ 71.601254092149901, 51.346865296021704 ], [ 71.601236173704663, 51.346582421965628 ] ] ] } },
{ "type": "Feature", "properties": { "candidate_id": "D00003", "area_m2": 12817.254743507368, "break_date": "2021-12-25", "probability": 0.75744796897760613, "ndvi_drop": 0.21398293919940739, "bsi_rise": 0.15972812210661852, "pmli_response": 0.041999117803576749, "sar_incoherence": 0.29914503861491559, "thermal_anomaly": 2.6403081374573958, "verify_providers": 2, "verify_texture": 0.23908232382537731, "damage_p10": 8174021.6456736065, "damage_p50": 31274757.222429924, "damage_p90": 64031088.452082589, "mass_t": 4186.4015085886422, "co2e_t": 776.83916949210447, "penalty_kzt": 432500.0, "penalty_article": "ст. 344, ч. 2-1", "is_demo": true }, "geometry": { "type": "Polygon", "coordinates": [ [ [ 70.935006761738364, 50.945514087898388 ], [ 70.93382823185982, 50.944050524183091 ], [ 70.932742416315591, 50.945018955032211 ], [ 70.933588353998431, 50.945137781313477 ], [ 70.933641513709617, 50.945180987494645 ], [ 70.933629278371669, 50.945473477017345 ], [ 70.935135245023446, 50.945702613925924 ], [ 70.935006761738364, 50.945514087898388 ] ] ] } },
{ "type": "Feature", "properties": { "candidate_id": "D00010", "area_m2": 4946.6387045093034, "break_date": "2022-06-28", "probability": 0.75677170815025085, "ndvi_drop": 0.27915375072614812, "bsi_rise": 0.24357459864965786, "pmli_response": 0.0, "sar_incoherence": 0.31447246032354736, "thermal_anomaly": 1.976512421372447, "verify_providers": 3, "verify_texture": 0.60327891814367796, "damage_p10": 3153421.5377834016, "damage_p50": 11967673.608132936, "damage_p90": 24798486.794757329, "mass_t": 1618.9916559826779, "co2e_t": 300.29507008697885, "penalty_kzt": 432500.0, "penalty_article": "ст. 344, ч. 2-1", "is_demo": true }, "geometry": { "type": "Polygon", "coordinates": [ [ [ 71.115461493513166, 51.019439747876724 ], [ 71.115445826532977, 51.018955154925493 ], [ 71.114323842341818, 51.019157168045496 ], [ 71.114294505450843, 51.019311243277713 ], [ 71.114432990840882, 51.019628182560915 ], [ 71.114809036455995, 51.019561923847455 ], [ 71.115752905679997, 51.019664851540654 ], [ 71.115461493513166, 51.019439747876724 ] ] ] } },
{ "type": "Feature", "properties": { "candidate_id": "D00005", "area_m2": 19049.277615171173, "break_date": "2020-06-20", "probability": 0.74552242574285044, "ndvi_drop": 0.19890337401497854, "bsi_rise": 0.12174416188838141, "pmli_response": 0.050990957418569877, "sar_incoherence": 0.66927045986527456, "thermal_anomaly": 0.97861332077561392, "verify_providers": 2, "verify_texture": 0.7009280566725421, "damage_p10": 12438271.99363246, "damage_p50": 48554969.712664455, "damage_p90": 98460918.025788978, "mass_t": 6313.8061005671316, "co2e_t": 1169.7921758003104, "penalty_kzt": 432500.0, "penalty_article": "ст. 344, ч. 2-1", "is_demo": true }, "geometry": { "type": "Polygon", "coordinates": [ [ [ 71.465038607393623, 51.146856135790962 ], [ 71.462041567630635, 51.146421560885841 ], [ 71.461477146461533, 51.146632495607349 ], [ 71.462162512891638, 51.146863383723904 ], [ 71.461743926452016, 51.1471321009614 ], [ 71.462677116219581, 51.147328446537522 ], [ 71.463023252432393, 51.147967904124954 ], [ 71.465038607393623, 51.146856135790962 ] ] ] } },
{ "type": "Feature", "properties": { "candidate_id": "D00004", "area_m2": 866.71582962616549, "break_date": "2020-01-21", "probability": 0.73808893469051384, "ndvi_drop": 0.30810905680886425, "bsi_rise": 0.15888886514506134, "pmli_response": 0.021167748219893687, "sar_incoherence": 0.19766313781886874, "thermal_anomaly": 2.1135138474501955, "verify_providers": 2, "verify_texture": 0.70086278222098863, "damage_p10": 528121.78051215434, "damage_p50": 2103017.8044715934, "damage_p90": 4345973.6322120633, "mass_t": 281.28823733666377, "co2e_t": 52.296380945858616, "penalty_kzt": 432500.0, "penalty_article": "ст. 344, ч. 2-1", "is_demo": true }, "geometry": { "type": "Polygon", "coordinates": [ [ [ 71.262673436839066, 51.197642178150161 ], [ 71.263190371014034, 51.197370111244652 ], [ 71.262989510760661, 51.197316055805622 ], [ 71.262883138528949, 51.197275017678109 ], [ 71.262667629686675, 51.197293227049983 ], [ 71.262747361611446, 51.197404820498903 ], [ 71.262560087776322, 51.197403294116633 ], [ 71.262673436839066, 51.197642178150161 ] ] ] } },
{ "type": "Feature", "properties": { "candidate_id": "D00014", "area_m2": 27367.413268697852, "break_date": "2019-10-28", "probability": 0.72661681321197535, "ndvi_drop": 0.25922331517011249, "bsi_rise": 0.17983880483284787, "pmli_response": 0.11282113901669676, "sar_incoherence": 0.29093882416631417, "thermal_anomaly": 2.3211672557321128, "verify_providers": 2, "verify_texture": 0.50214901745523177, "damage_p10": 19066548.960757565, "damage_p50": 68451620.395231307, "damage_p90": 132983076.98670611, "mass_t": 8957.846266332901, "co2e_t": 1654.0490318694447, "penalty_kzt": 432500.0, "penalty_article": "ст. 344, ч. 2-1", "is_demo": true }, "geometry": { "type": "Polygon", "coordinates": [ [ [ 70.932241255196985, 51.13824877252631 ], [ 70.932073413489022, 51.137021888967624 ], [ 70.931083240135806, 51.136345454394231 ], [ 70.929878109468675, 51.137678616797452 ], [ 70.92918063661547, 51.137922207413212 ], [ 70.930434192660272, 51.138184190736254 ], [ 70.930314206511838, 51.1385824125312 ], [ 70.932241255196985, 51.13824877252631 ] ] ] } },
{ "type": "Feature", "properties": { "candidate_id": "D00016", "area_m2": 18776.106031807209, "break_date": "2021-08-31", "probability": 0.71977727698964911, "ndvi_drop": 0.39461883174322521, "bsi_rise": 0.17346905675663896, "pmli_response": 0.086407623732683014, "sar_incoherence": 0.51143602361995777, "thermal_anomaly": 0.95433896723265288, "verify_providers": 3, "verify_texture": 0.60995266707128593, "damage_p10": 11056994.263621787, "damage_p50": 46147336.699136503, "damage_p90": 93031785.652136505, "mass_t": 6114.9720838818994, "co2e_t": 1136.002931177135, "penalty_kzt": 432500.0, "penalty_article": "ст. 344, ч. 2-1", "is_demo": true }, "geometry": { "type": "Polygon", "coordinates": [ [ [ 70.975215262763712, 51.364292774294768 ], [ 70.975461115841782, 51.363748182121157 ], [ 70.974388641645618, 51.363017195698234 ], [ 70.973265351723711, 51.363285168910977 ], [ 70.973157272358279, 51.364055982109491 ], [ 70.974831382380586, 51.364799808776588 ], [ 70.974549619381037, 51.364347508240151 ], [ 70.975215262763712, 51.364292774294768 ] ] ] } },
{ "type": "Feature", "properties": { "candidate_id": "D00009", "area_m2": 9640.8217928980848, "break_date": "2023-04-09", "probability": 0.68794748958648144, "ndvi_drop": 0.27932575966010798, "bsi_rise": 0.18758782041996019, "pmli_response": 0.082126213903114698, "sar_incoherence": 0.35001265896371209, "thermal_anomaly": 1.0784419664571527, "verify_providers": 0, "verify_texture": 0.60696896710119552, "damage_p10": 6251846.0418121312, "damage_p50": 23675728.555393867, "damage_p90": 48280820.371321566, "mass_t": 3154.8630153646236, "co2e_t": 587.38772567565798, "penalty_kzt": 432500.0, "penalty_article": "ст. 344, ч. 2-1", "is_demo": true }, "geometry": { "type": "Polygon", "coordinates": [ [ [ 71.190044931757711, 51.018174529186446 ], [ 71.189548922980606, 51.01752495717065 ], [ 71.189548758291622, 51.017460351779533 ], [ 71.188464031553053, 51.017659772651299 ], [ 71.188871029602907, 51.018571622465103 ], [ 71.1897964283677, 51.018407732764949 ], [ 71.190562784960619, 51.018580785254613 ], [ 71.190044931757711, 51.018174529186446 ] ] ] } },
{ "type": "Feature", "properties": { "candidate_id": "D00008", "area_m2": 1188.7329474098344, "break_date": "2020-07-05", "probability": 0.68656795406376825, "ndvi_drop": 0.4026625176355304, "bsi_rise": 0.14352802863169634, "pmli_response": 0.044925568873296469, "sar_incoherence": 0.33586061686211643, "thermal_anomaly": 0.042271608643368763, "verify_providers": 3, "verify_texture": 0.28593185582962177, "damage_p10": 789154.6501593159, "damage_p50": 2972963.2992029111, "damage_p90": 6034765.460084076, "mass_t": 389.1896032859749, "co2e_t": 72.214336134976179, "penalty_kzt": 432500.0, "penalty_article": "ст. 344, ч. 2-1", "is_demo": true }, "geometry": { "type": "Polygon", "coordinates": [ [ [ 71.250343045960918, 51.380544179974066 ], [ 71.250388482960446, 51.38032385850348 ], [ 71.249845507471946, 51.380284983169616 ], [ 71.249831809547203, 51.380318051476117 ], [ 71.249623945338058, 51.380308294366039 ], [ 71.249729706049109, 51.380484507866257 ], [ 71.250258538836917, 51.380571522057835 ], [ 71.250343045960918, 51.380544179974066 ] ] ] } },
{ "type": "Feature", "properties": { "candidate_id": "D00018", "area_m2": 5274.0176777956613, "break_date": "2020-06-10", "probability": 0.66640333119984974, "ndvi_drop": 0.29609305628781885, "bsi_rise": 0.14202138569752554, "pmli_response": 0.098603208380012256, "sar_incoherence": 0.11585624705083356, "thermal_anomaly": 1.5026766373023646, "verify_providers": 2, "verify_texture": 0.56790594514283299, "damage_p10": 3215792.4435077868, "damage_p50": 12945526.999563772, "damage_p90": 26653753.054104418, "mass_t": 1719.6159887855488, "co2e_t": 323.27001929682956, "penalty_kzt": 432500.0, "penalty_article": "ст. 344, ч. 2-1", "is_demo": true }, "geometry": { "type": "Polygon", "coordinates": [ [ [ 71.27999083208995, 51.333783281466125 ], [ 71.279590722486631, 51.333271178794874 ], [ 71.278846459135707, 51.33408626556232 ], [ 71.279051958849479, 51.334364223509347 ], [ 71.279817761132435, 51.33426545296085 ], [ 71.279676912884455, 51.333856573614334 ], [ 71.28025092286218, 51.333912287725461 ], [ 71.27999083208995, 51.333783281466125 ] ] ] } },
{ "type": "Feature", "properties": { "candidate_id": "D00006", "area_m2": 5780.8993117458003, "break_date": "2021-01-08", "probability": 0.62256802951698798, "ndvi_drop": 0.19653185809676998, "bsi_rise": 0.10159204003771675, "pmli_response": 0.14603711728924998, "sar_incoherence": 0.60854985811749451, "thermal_anomaly": 1.6204807867173994, "verify_providers": 2, "verify_texture": 0.48102628219552224, "damage_p10": 3820496.4321984001, "damage_p50": 14511788.795117885, "damage_p90": 29830703.025211684, "mass_t": 1885.0850399641099, "co2e_t": 355.0068117052665, "penalty_kzt": 432500.0, "penalty_article": "ст. 344, ч. 2-1", "is_demo": true }, "geometry": { "type": "Polygon", "coordinates": [ [ [ 71.286145610760954, 51.394677821062011 ], [ 71.286106866018685, 51.394502467877544 ], [ 71.285815035762397, 51.394393853379682 ], [ 71.284629137656964, 51.394515689073131 ], [ 71.284511638187126, 51.394774374530584 ], [ 71.28529589951745, 51.395087319131228 ], [ 71.28572917870666, 51.394962034906342 ], [ 71.286145610760954, 51.394677821062011 ] ] ] } },
{ "type": "Feature", "properties": { "candidate_id": "D00001", "area_m2": 12367.695975439277, "break_date": "2021-08-15", "probability": 0.61640730364975582, "ndvi_drop": 0.31073481378431372, "bsi_rise": 0.1733789534744446, "pmli_response": 0.091564775947599375, "sar_incoherence": 0.44469323387578102, "thermal_anomaly": 0.3428441801443336, "verify_providers": 3, "verify_texture": 0.49245918105568581, "damage_p10": 8478226.2771153171, "damage_p50": 30640658.046763837, "damage_p90": 62922194.307615206, "mass_t": 4046.5678031029765, "co2e_t": 753.15314493110714, "penalty_kzt": 432500.0, "penalty_article": "ст. 344, ч. 2-1", "is_demo": true }, "geometry": { "type": "Polygon", "coordinates": [ [ [ 71.09601022194542, 51.255960184096885 ], [ 71.096858529111344, 51.255298443494745 ], [ 71.094280556882509, 51.255646606552745 ], [ 71.093911111979381, 51.255724714978449 ], [ 71.094272058430775, 51.256266046919748 ], [ 71.094810048584336, 51.256196534101257 ], [ 71.095885863197296, 51.256342207000934 ], [ 71.09601022194542, 51.255960184096885 ] ] ] } },
{ "type": "Feature", "properties": { "candidate_id": "D00002", "area_m2": 1711.2560693369849, "break_date": "2019-03-18", "probability": 0.61355065518501117, "ndvi_drop": 0.24436484121980795, "bsi_rise": 0.17792698455383571, "pmli_response": 0.10502361575869347, "sar_incoherence": 0.30359801904196421, "thermal_anomaly": 2.2567752375574113, "verify_providers": 0, "verify_texture": 0.43085333060800279, "damage_p10": 1076538.2780880474, "damage_p50": 4244303.6529224077, "damage_p90": 8581125.6907027233, "mass_t": 559.0867367735043, "co2e_t": 104.79849333999792, "penalty_kzt": 432500.0, "penalty_article": "ст. 344, ч. 2-1", "is_demo": true }, "geometry": { "type": "Polygon", "coordinates": [ [ [ 71.434630978031478, 51.188765541783212 ], [ 71.434289943098932, 51.188196134751124 ], [ 71.434029196855008, 51.188339105976176 ], [ 71.434006326160429, 51.18840690095584 ], [ 71.433841999781009, 51.188468811193552 ], [ 71.433975608654976, 51.188516431186414 ], [ 71.433869487596496, 51.188623730501902 ], [ 71.434630978031478, 51.188765541783212 ] ] ] } },
{ "type": "Feature", "properties": { "candidate_id": "D00013", "area_m2": 6314.8441640138881, "break_date": "2022-09-09", "probability": 0.60714926169559313, "ndvi_drop": 0.30324699007944561, "bsi_rise": 0.28638265501730426, "pmli_response": 0.07179353244535823, "sar_incoherence": 0.049471656190022917, "thermal_anomaly": 3.404254361517141, "verify_providers": 1, "verify_texture": 0.46761410242777146, "damage_p10": 4035020.0141384988, "damage_p50": 15386603.961142939, "damage_p90": 32303617.425936472, "mass_t": 2066.0131899229386, "co2e_t": 383.45999109687205, "penalty_kzt": 432500.0, "penalty_article": "ст. 344, ч. 2-1", "is_demo": true }, "geometry": { "type": "Polygon", "coordinates": [ [ [ 71.79174359221048, 51.235222719073228 ], [ 71.791819596839645, 51.234406527628401 ], [ 71.791175261471437, 51.234145169381193 ], [ 71.790666737741745, 51.235115796615418 ], [ 71.790831766374907, 51.235248035928116 ], [ 71.791076874364478, 51.235157179569441 ], [ 71.791530557090383, 51.235099345385485 ], [ 71.79174359221048, 51.235222719073228 ] ] ] } },
{ "type": "Feature", "properties": { "candidate_id": "D00019", "area_m2": 6161.1900478686293, "break_date": "2024-07-14", "probability": 0.5566336130054601, "ndvi_drop": 0.30824825415906731, "bsi_rise": 0.14306143411911285, "pmli_response": 0.12591250642934254, "sar_incoherence": 0.0, "thermal_anomaly": 1.0134342248958315, "verify_providers": 0, "verify_texture": 0.24643573277786168, "damage_p10": 4113301.5180306779, "damage_p50": 15403262.993071273, "damage_p90": 31088896.769426029, "mass_t": 2033.4251995124218, "co2e_t": 374.64162182893585, "penalty_kzt": 432500.0, "penalty_article": "ст. 344, ч. 2-1", "is_demo": true }, "geometry": { "type": "Polygon", "coordinates": [ [ [ 70.923988623808057, 51.008417394356336 ], [ 70.924552255570717, 51.008002615715583 ], [ 70.924524487875416, 51.007999849260997 ], [ 70.924207868981554, 51.007426832218577 ], [ 70.923934966868018, 51.007704598007322 ], [ 70.922790786348358, 51.007877030975202 ], [ 70.924104581065649, 51.008546618685628 ], [ 70.923988623808057, 51.008417394356336 ] ] ] } },
{ "type": "Feature", "properties": { "candidate_id": "D00012", "area_m2": 1756.3109138233524, "break_date": "2023-02-03", "probability": 0.50412792229339609, "ndvi_drop": 0.23453379448853368, "bsi_rise": 0.19954531613966775, "pmli_response": 0.016736224021842314, "sar_incoherence": 0.57139235720802628, "thermal_anomaly": 2.1683566127006584, "verify_providers": 2, "verify_texture": 0.70238511745181276, "damage_p10": 1130904.8015271993, "damage_p50": 4263812.3507344481, "damage_p90": 8584558.5389648974, "mass_t": 570.31503358132022, "co2e_t": 105.39036813790457, "penalty_kzt": 432500.0, "penalty_article": "ст. 344, ч. 2-1", "is_demo": true }, "geometry": { "type": "Polygon", "coordinates": [ [ [ 71.022788983592804, 51.390721465249435 ], [ 71.023219864161874, 51.39032969520229 ], [ 71.023245124550883, 51.390299164573179 ], [ 71.022926716386252, 51.390116418024235 ], [ 71.022872576780841, 51.390202066239098 ], [ 71.02287551853594, 51.390096519478504 ], [ 71.022519619203081, 51.390304877804304 ], [ 71.022788983592804, 51.390721465249435 ] ] ] } },
{ "type": "Feature", "properties": { "candidate_id": "D00017", "area_m2": 6390.9119541396212, "break_date": "2021-01-23", "probability": 0.35, "ndvi_drop": 0.3559928703963704, "bsi_rise": 0.17457600890866043, "pmli_response": 0.10323108381319188, "sar_incoherence": 0.34148252084109626, "thermal_anomaly": 1.6295924188357955, "verify_providers": 2, "verify_texture": 0.40969316858942451, "damage_p10": 3971468.3579855016, "damage_p50": 16012108.732627079, "damage_p90": 32832293.020443544, "mass_t": 2112.112798405632, "co2e_t": 387.45068367532497, "penalty_kzt": 432500.0, "penalty_article": "ст. 344, ч. 2-1", "is_demo": true }, "geometry": { "type": "Polygon", "coordinates": [ [ [ 71.627407125315244, 51.101593243142652 ], [ 71.625699141458298, 51.101179274058133 ], [ 71.625886920243929, 51.101576523179318 ], [ 71.625788686253046, 51.10178934826564 ], [ 71.626223950306183, 51.10201976199572 ], [ 71.626741921026166, 51.102073178997536 ], [ 71.626767044099694, 51.102012825789373 ], [ 71.627407125315244, 51.101593243142652 ] ] ] } }
]
}
