<?xml version="1.0" encoding="UTF-8"?>
<gpx version="1.1" creator="Vantage AI" xmlns="http://www.topografix.com/GPX/1/1">
<wpt lat="51.144402" lon="71.539733"><name>1. C00061</name><desc>опознан по снимку как свалка, 3327 м²</desc></wpt>
<wpt lat="51.183020" lon="71.519468"><name>2. C00082</name><desc>по снимку не разобрать — нужен выезд, 2500 м²</desc></wpt>
<wpt lat="51.192488" lon="71.489537"><name>3. C00098</name><desc>по снимку не разобрать — нужен выезд, 2101 м²</desc></wpt>
<wpt lat="51.161168" lon="71.548365"><name>4. C00125</name><desc>опознан по снимку как свалка, 1503 м²</desc></wpt>
<wpt lat="51.166039" lon="71.518572"><name>5. C00151</name><desc>по снимку не разобрать — нужен выезд, 1300 м²</desc></wpt>
<wpt lat="51.166422" lon="71.519614"><name>6. C00177</name><desc>по снимку не разобрать — нужен выезд, 1100 м²</desc></wpt>
<wpt lat="51.160180" lon="71.547510"><name>7. C00219</name><desc>по снимку не разобрать — нужен выезд, 800 м²</desc></wpt>
<wpt lat="51.170205" lon="71.548433"><name>8. C00221</name><desc>опознан по снимку как свалка, 800 м²</desc></wpt>
<wpt lat="51.162926" lon="71.552255"><name>9. C00225</name><desc>по снимку не разобрать — нужен выезд, 800 м²</desc></wpt>
<wpt lat="51.161871" lon="71.549847"><name>10. C00317</name><desc>опознан по снимку как свалка, 500 м²</desc></wpt>
<wpt lat="51.247951" lon="71.557030"><name>11. C00318</name><desc>опознан по снимку как свалка, 500 м²</desc></wpt>
<wpt lat="51.168059" lon="71.549889"><name>12. C00323</name><desc>по снимку не разобрать — нужен выезд, 500 м²</desc></wpt>
<wpt lat="51.207078" lon="71.483748"><name>13. C00331</name><desc>опознан по снимку как свалка, 500 м²</desc></wpt>
<wpt lat="51.199445" lon="71.500086"><name>14. C00332</name><desc>опознан по снимку как свалка, 500 м²</desc></wpt>
<wpt lat="51.166543" lon="71.610461"><name>15. C00334</name><desc>по снимку не разобрать — нужен выезд, 500 м²</desc></wpt>
</gpx>