{"type": "FeatureCollection", "features": [{"type": "Feature", "geometry": {"type": "Polygon", "coordinates": [[[71.539224, 51.144502], [71.539229, 51.144592], [71.539086, 51.144595], [71.539239, 51.144772], [71.53952, 51.144676], [71.539525, 51.144766], [71.539668, 51.144763], [71.539663, 51.144673], [71.540091, 51.144663], [71.540086, 51.144574], [71.540229, 51.14457], [71.540224, 51.144481], [71.540153, 51.144482], [71.540076, 51.144394], [71.540219, 51.144391], [71.540214, 51.144301], [71.540071, 51.144304], [71.540061, 51.144124], [71.539919, 51.144127], [71.539914, 51.144038], [71.539633, 51.144134], [71.539643, 51.144313], [71.539362, 51.144409], [71.539367, 51.144499], [71.539224, 51.144502]]]}, "properties": {"n": 1, "candidate_id": "C00061", "status": "опознан по снимку как свалка", "lat": 51.144402, "lon": 71.539733, "area_m2": 3327, "break_date": "2024-05", "mass_t": 1090, "removal_kzt": 16549070, "recyclable_kzt": 8399832, "damage_p50_kzt": 8302282, "penalty_kzt": 432500, "field_check": "нет", "map_link": "https://hakathon-lyart.vercel.app/map.html?object=C00061", "google_maps": "https://www.google.com/maps?q=51.144402,71.539733"}}, {"type": "Feature", "geometry": {"type": "Polygon", "coordinates": [[[71.519434, 51.182796], [71.519439, 51.182886], [71.519153, 51.182892], [71.51902, 51.183074], [71.518877, 51.183078], [71.51903, 51.183254], [71.519173, 51.183251], [71.519178, 51.183341], [71.519458, 51.183245], [71.519463, 51.183335], [71.519606, 51.183332], [71.519739, 51.183149], [71.519882, 51.183146], [71.519873, 51.182966], [71.519582, 51.182882], [71.519577, 51.182793], [71.519434, 51.182796]]]}, "properties": {"n": 2, "candidate_id": "C00082", "status": "по снимку не разобрать — нужен выезд", "lat": 51.18302, "lon": 71.519468, "area_m2": 2500, "break_date": "2019-09", "mass_t": 819, "removal_kzt": 12435766, "recyclable_kzt": 6312037, "damage_p50_kzt": 6238733, "penalty_kzt": 432500, "field_check": "нет", "map_link": "https://hakathon-lyart.vercel.app/map.html?object=C00082", "google_maps": "https://www.google.com/maps?q=51.183020,71.519468"}}, {"type": "Feature", "geometry": {"type": "Polygon", "coordinates": [[[71.489479, 51.192558], [71.489477, 51.192521], [71.489768, 51.192605], [71.489768, 51.192605], [71.489768, 51.192605], [71.489763, 51.192517], [71.489763, 51.192515], [71.489906, 51.192512], [71.489906, 51.192512], [71.489906, 51.192512], [71.489905, 51.1925], [71.489896, 51.192333], [71.489606, 51.192249], [71.489601, 51.192159], [71.489601, 51.192159], [71.489601, 51.192159], [71.48932, 51.192255], [71.489325, 51.192361], [71.489329, 51.192435], [71.489204, 51.192477], [71.489048, 51.19253], [71.489053, 51.192617], [71.489053, 51.19262], [71.48891, 51.192623], [71.48891, 51.192623], [71.48891, 51.192623], [71.489063, 51.1928], [71.489063, 51.1928], [71.489063, 51.1928], [71.489344, 51.192704], [71.489339, 51.192614], [71.489482, 51.192611], [71.489482, 51.192611], [71.489482, 51.192611], [71.489479, 51.192558]]]}, "properties": {"n": 3, "candidate_id": "C00098", "status": "по снимку не разобрать — нужен выезд", "lat": 51.192488, "lon": 71.489537, "area_m2": 2101, "break_date": "2022-04", "mass_t": 688, "removal_kzt": 10453102, "recyclable_kzt": 5305694, "damage_p50_kzt": 5244077, "penalty_kzt": 432500, "field_check": "нет", "map_link": "https://hakathon-lyart.vercel.app/map.html?object=C00098", "google_maps": "https://www.google.com/maps?q=51.192488,71.489537"}}, {"type": "Feature", "geometry": {"type": "Polygon", "coordinates": [[[71.548571, 51.161028], [71.548143, 51.161037], [71.548143, 51.161037], [71.548143, 51.161037], [71.548148, 51.161127], [71.548005, 51.16113], [71.548005, 51.16113], [71.548005, 51.16113], [71.548015, 51.16131], [71.548015, 51.16131], [71.548015, 51.16131], [71.548157, 51.161307], [71.548162, 51.161397], [71.548443, 51.161301], [71.548443, 51.161301], [71.548443, 51.161301], [71.548438, 51.161211], [71.548724, 51.161205], [71.548724, 51.161205], [71.548724, 51.161205], [71.548719, 51.161115], [71.548862, 51.161112], [71.548862, 51.161112], [71.548862, 51.161112], [71.548709, 51.160935], [71.548709, 51.160935], [71.548709, 51.160935], [71.548566, 51.160938], [71.548571, 51.161028]]]}, "properties": {"n": 4, "candidate_id": "C00125", "status": "опознан по снимку как свалка", "lat": 51.161168, "lon": 71.548365, "area_m2": 1503, "break_date": "2024-09", "mass_t": 492, "removal_kzt": 7477171, "recyclable_kzt": 3795197, "damage_p50_kzt": 3751122, "penalty_kzt": 432500, "field_check": "нет", "map_link": "https://hakathon-lyart.vercel.app/map.html?object=C00125", "google_maps": "https://www.google.com/maps?q=51.161168,71.548365"}}, {"type": "Feature", "geometry": {"type": "Polygon", "coordinates": [[[71.518237, 51.166092], [71.518242, 51.166182], [71.518385, 51.166179], [71.51839, 51.166269], [71.518676, 51.166263], [71.518671, 51.166173], [71.518814, 51.16617], [71.518804, 51.16599], [71.518513, 51.165907], [71.518508, 51.165817], [71.518227, 51.165913], [71.51838, 51.166089], [71.518237, 51.166092]]]}, "properties": {"n": 5, "candidate_id": "C00151", "status": "по снимку не разобрать — нужен выезд", "lat": 51.166039, "lon": 71.518572, "area_m2": 1300, "break_date": "2020-08", "mass_t": 426, "removal_kzt": 6466599, "recyclable_kzt": 3282259, "damage_p50_kzt": 3244141, "penalty_kzt": 432500, "field_check": "нет", "map_link": "https://hakathon-lyart.vercel.app/map.html?object=C00151", "google_maps": "https://www.google.com/maps?q=51.166039,71.518572"}}, {"type": "Feature", "geometry": {"type": "Polygon", "coordinates": [[[71.519262, 51.16652], [71.519415, 51.166697], [71.519695, 51.166601], [71.519691, 51.166511], [71.519833, 51.166508], [71.519824, 51.166328], [71.519681, 51.166331], [71.519676, 51.166241], [71.519395, 51.166337], [71.519405, 51.166517], [71.519262, 51.16652]]]}, "properties": {"n": 6, "candidate_id": "C00177", "status": "по снимку не разобрать — нужен выезд", "lat": 51.166422, "lon": 71.519614, "area_m2": 1100, "break_date": "2020-08", "mass_t": 360, "removal_kzt": 5471737, "recyclable_kzt": 2777296, "damage_p50_kzt": 2745043, "penalty_kzt": 432500, "field_check": "нет", "map_link": "https://hakathon-lyart.vercel.app/map.html?object=C00177", "google_maps": "https://www.google.com/maps?q=51.166422,71.519614"}}, {"type": "Feature", "geometry": {"type": "Polygon", "coordinates": [[[71.547374, 51.160065], [71.547379, 51.160155], [71.547236, 51.160158], [71.547236, 51.160158], [71.547236, 51.160158], [71.547274, 51.160202], [71.547389, 51.160334], [71.547674, 51.160328], [71.547669, 51.160238], [71.547812, 51.160235], [71.547678, 51.16008], [71.54766, 51.160059], [71.54766, 51.160059], [71.54766, 51.160059], [71.547374, 51.160065]]]}, "properties": {"n": 7, "candidate_id": "C00219", "status": "по снимку не разобрать — нужен выезд", "lat": 51.16018, "lon": 71.54751, "area_m2": 800, "break_date": "2024-08", "mass_t": 262, "removal_kzt": 3979609, "recyclable_kzt": 2019935, "damage_p50_kzt": 1996477, "penalty_kzt": 432500, "field_check": "нет", "map_link": "https://hakathon-lyart.vercel.app/map.html?object=C00219", "google_maps": "https://www.google.com/maps?q=51.160180,71.547510"}}, {"type": "Feature", "geometry": {"type": "Polygon", "coordinates": [[[71.548372, 51.170386], [71.548653, 51.17029], [71.548643, 51.170111], [71.5485, 51.170114], [71.548495, 51.170024], [71.548214, 51.17012], [71.548224, 51.1703], [71.548367, 51.170296], [71.548372, 51.170386]]]}, "properties": {"n": 8, "candidate_id": "C00221", "status": "опознан по снимку как свалка", "lat": 51.170205, "lon": 71.548433, "area_m2": 800, "break_date": "2019-04", "mass_t": 262, "removal_kzt": 3979445, "recyclable_kzt": 2019852, "damage_p50_kzt": 1996395, "penalty_kzt": 432500, "field_check": "нет", "map_link": "https://hakathon-lyart.vercel.app/map.html?object=C00221", "google_maps": "https://www.google.com/maps?q=51.170205,71.548433"}}, {"type": "Feature", "geometry": {"type": "Polygon", "coordinates": [[[71.552262, 51.163106], [71.552543, 51.16301], [71.552538, 51.16292], [71.552247, 51.162837], [71.552242, 51.162747], [71.552099, 51.16275], [71.551966, 51.162933], [71.552257, 51.163016], [71.552262, 51.163106]]]}, "properties": {"n": 9, "candidate_id": "C00225", "status": "по снимку не разобрать — нужен выезд", "lat": 51.162926, "lon": 71.552255, "area_m2": 800, "break_date": "2023-08", "mass_t": 262, "removal_kzt": 3979445, "recyclable_kzt": 2019852, "damage_p50_kzt": 1996395, "penalty_kzt": 432500, "field_check": "нет", "map_link": "https://hakathon-lyart.vercel.app/map.html?object=C00225", "google_maps": "https://www.google.com/maps?q=51.162926,71.552255"}}, {"type": "Feature", "geometry": {"type": "Polygon", "coordinates": [[[71.549616, 51.161815], [71.549644, 51.161847], [71.549769, 51.161991], [71.550049, 51.161895], [71.549915, 51.16174], [71.549897, 51.161719], [71.549897, 51.161719], [71.549897, 51.161719], [71.549616, 51.161815], [71.549616, 51.161815], [71.549616, 51.161815]]]}, "properties": {"n": 10, "candidate_id": "C00317", "status": "опознан по снимку как свалка", "lat": 51.161871, "lon": 71.549847, "area_m2": 500, "break_date": "2024-07", "mass_t": 164, "removal_kzt": 2487246, "recyclable_kzt": 1262455, "damage_p50_kzt": 1247793, "penalty_kzt": 432500, "field_check": "нет", "map_link": "https://hakathon-lyart.vercel.app/map.html?object=C00317", "google_maps": "https://www.google.com/maps?q=51.161871,71.549847"}}, {"type": "Feature", "geometry": {"type": "Polygon", "coordinates": [[[71.557247, 51.247991], [71.557094, 51.247815], [71.556813, 51.247911], [71.556966, 51.248088], [71.557247, 51.247991]]]}, "properties": {"n": 11, "candidate_id": "C00318", "status": "опознан по снимку как свалка", "lat": 51.247951, "lon": 71.55703, "area_m2": 500, "break_date": "2024-05", "mass_t": 164, "removal_kzt": 2487153, "recyclable_kzt": 1262407, "damage_p50_kzt": 1247747, "penalty_kzt": 432500, "field_check": "нет", "map_link": "https://hakathon-lyart.vercel.app/map.html?object=C00318", "google_maps": "https://www.google.com/maps?q=51.247951,71.557030"}}, {"type": "Feature", "geometry": {"type": "Polygon", "coordinates": [[[71.549825, 51.168196], [71.550106, 51.1681], [71.549953, 51.167923], [71.549672, 51.168019], [71.549825, 51.168196]]]}, "properties": {"n": 12, "candidate_id": "C00323", "status": "по снимку не разобрать — нужен выезд", "lat": 51.168059, "lon": 71.549889, "area_m2": 500, "break_date": "2024-06", "mass_t": 164, "removal_kzt": 2487153, "recyclable_kzt": 1262407, "damage_p50_kzt": 1247747, "penalty_kzt": 432500, "field_check": "нет", "map_link": "https://hakathon-lyart.vercel.app/map.html?object=C00323", "google_maps": "https://www.google.com/maps?q=51.168059,71.549889"}}, {"type": "Feature", "geometry": {"type": "Polygon", "coordinates": [[[71.483965, 51.207119], [71.483812, 51.206942], [71.483531, 51.207038], [71.483683, 51.207215], [71.483965, 51.207119]]]}, "properties": {"n": 13, "candidate_id": "C00331", "status": "опознан по снимку как свалка", "lat": 51.207078, "lon": 71.483748, "area_m2": 500, "break_date": "2019-07", "mass_t": 164, "removal_kzt": 2487153, "recyclable_kzt": 1262407, "damage_p50_kzt": 1247747, "penalty_kzt": 432500, "field_check": "нет", "map_link": "https://hakathon-lyart.vercel.app/map.html?object=C00331", "google_maps": "https://www.google.com/maps?q=51.207078,71.483748"}}, {"type": "Feature", "geometry": {"type": "Polygon", "coordinates": [[[71.500303, 51.199486], [71.50015, 51.199309], [71.499869, 51.199405], [71.500022, 51.199582], [71.500303, 51.199486]]]}, "properties": {"n": 14, "candidate_id": "C00332", "status": "опознан по снимку как свалка", "lat": 51.199445, "lon": 71.500086, "area_m2": 500, "break_date": "2024-06", "mass_t": 164, "removal_kzt": 2487153, "recyclable_kzt": 1262407, "damage_p50_kzt": 1247747, "penalty_kzt": 432500, "field_check": "нет", "map_link": "https://hakathon-lyart.vercel.app/map.html?object=C00332", "google_maps": "https://www.google.com/maps?q=51.199445,71.500086"}}, {"type": "Feature", "geometry": {"type": "Polygon", "coordinates": [[[71.610678, 51.166583], [71.610525, 51.166407], [71.610244, 51.166503], [71.610397, 51.166679], [71.610678, 51.166583]]]}, "properties": {"n": 15, "candidate_id": "C00334", "status": "по снимку не разобрать — нужен выезд", "lat": 51.166543, "lon": 71.610461, "area_m2": 500, "break_date": "2021-10", "mass_t": 164, "removal_kzt": 2487153, "recyclable_kzt": 1262407, "damage_p50_kzt": 1247747, "penalty_kzt": 432500, "field_check": "нет", "map_link": "https://hakathon-lyart.vercel.app/map.html?object=C00334", "google_maps": "https://www.google.com/maps?q=51.166543,71.610461"}}]}