<?xml version="1.0" encoding="UTF-8"?>
<kml xmlns="http://www.opengis.net/kml/2.2"><Document>
<name>Vantage AI — очередь выезда</name>
<Style id="dump"><LineStyle><color>ff3a1d7c</color><width>3</width></LineStyle><PolyStyle><color>553a1d7c</color></PolyStyle></Style>
<Style id="pending"><LineStyle><color>ff0b8ae3</color><width>3</width></LineStyle><PolyStyle><color>550b8ae3</color></PolyStyle></Style>
<Style id="ground"><LineStyle><color>ff3ab91f</color><width>3</width></LineStyle><PolyStyle><color>553ab91f</color></PolyStyle></Style>
<Placemark><name>1. C00061</name><styleUrl>#dump</styleUrl><description><![CDATA[опознан по снимку как свалка<br/>Площадь 3327 м², возник 2024-05<br/>Ущерб ~8,3 млн ₸<br/><a href="https://hakathon-lyart.vercel.app/map.html?object=C00061">карточка на карте</a>]]></description><MultiGeometry><Point><coordinates>71.539733,51.144402,0</coordinates></Point><Polygon><outerBoundaryIs><LinearRing><coordinates>71.539224,51.144502,0 71.539229,51.144592,0 71.539086,51.144595,0 71.539239,51.144772,0 71.539520,51.144676,0 71.539525,51.144766,0 71.539668,51.144763,0 71.539663,51.144673,0 71.540091,51.144663,0 71.540086,51.144574,0 71.540229,51.144570,0 71.540224,51.144481,0 71.540153,51.144482,0 71.540076,51.144394,0 71.540219,51.144391,0 71.540214,51.144301,0 71.540071,51.144304,0 71.540061,51.144124,0 71.539919,51.144127,0 71.539914,51.144038,0 71.539633,51.144134,0 71.539643,51.144313,0 71.539362,51.144409,0 71.539367,51.144499,0 71.539224,51.144502,0</coordinates></LinearRing></outerBoundaryIs></Polygon></MultiGeometry></Placemark>
<Placemark><name>2. C00082</name><styleUrl>#pending</styleUrl><description><![CDATA[по снимку не разобрать — нужен выезд<br/>Площадь 2500 м², возник 2019-09<br/>Ущерб ~6,2 млн ₸<br/><a href="https://hakathon-lyart.vercel.app/map.html?object=C00082">карточка на карте</a>]]></description><MultiGeometry><Point><coordinates>71.519468,51.183020,0</coordinates></Point><Polygon><outerBoundaryIs><LinearRing><coordinates>71.519434,51.182796,0 71.519439,51.182886,0 71.519153,51.182892,0 71.519020,51.183074,0 71.518877,51.183078,0 71.519030,51.183254,0 71.519173,51.183251,0 71.519178,51.183341,0 71.519458,51.183245,0 71.519463,51.183335,0 71.519606,51.183332,0 71.519739,51.183149,0 71.519882,51.183146,0 71.519873,51.182966,0 71.519582,51.182882,0 71.519577,51.182793,0 71.519434,51.182796,0</coordinates></LinearRing></outerBoundaryIs></Polygon></MultiGeometry></Placemark>
<Placemark><name>3. C00098</name><styleUrl>#pending</styleUrl><description><![CDATA[по снимку не разобрать — нужен выезд<br/>Площадь 2101 м², возник 2022-04<br/>Ущерб ~5,2 млн ₸<br/><a href="https://hakathon-lyart.vercel.app/map.html?object=C00098">карточка на карте</a>]]></description><MultiGeometry><Point><coordinates>71.489537,51.192488,0</coordinates></Point><Polygon><outerBoundaryIs><LinearRing><coordinates>71.489479,51.192558,0 71.489477,51.192521,0 71.489768,51.192605,0 71.489768,51.192605,0 71.489768,51.192605,0 71.489763,51.192517,0 71.489763,51.192515,0 71.489906,51.192512,0 71.489906,51.192512,0 71.489906,51.192512,0 71.489905,51.192500,0 71.489896,51.192333,0 71.489606,51.192249,0 71.489601,51.192159,0 71.489601,51.192159,0 71.489601,51.192159,0 71.489320,51.192255,0 71.489325,51.192361,0 71.489329,51.192435,0 71.489204,51.192477,0 71.489048,51.192530,0 71.489053,51.192617,0 71.489053,51.192620,0 71.488910,51.192623,0 71.488910,51.192623,0 71.488910,51.192623,0 71.489063,51.192800,0 71.489063,51.192800,0 71.489063,51.192800,0 71.489344,51.192704,0 71.489339,51.192614,0 71.489482,51.192611,0 71.489482,51.192611,0 71.489482,51.192611,0 71.489479,51.192558,0</coordinates></LinearRing></outerBoundaryIs></Polygon></MultiGeometry></Placemark>
<Placemark><name>4. C00125</name><styleUrl>#dump</styleUrl><description><![CDATA[опознан по снимку как свалка<br/>Площадь 1503 м², возник 2024-09<br/>Ущерб ~3,8 млн ₸<br/><a href="https://hakathon-lyart.vercel.app/map.html?object=C00125">карточка на карте</a>]]></description><MultiGeometry><Point><coordinates>71.548365,51.161168,0</coordinates></Point><Polygon><outerBoundaryIs><LinearRing><coordinates>71.548571,51.161028,0 71.548143,51.161037,0 71.548143,51.161037,0 71.548143,51.161037,0 71.548148,51.161127,0 71.548005,51.161130,0 71.548005,51.161130,0 71.548005,51.161130,0 71.548015,51.161310,0 71.548015,51.161310,0 71.548015,51.161310,0 71.548157,51.161307,0 71.548162,51.161397,0 71.548443,51.161301,0 71.548443,51.161301,0 71.548443,51.161301,0 71.548438,51.161211,0 71.548724,51.161205,0 71.548724,51.161205,0 71.548724,51.161205,0 71.548719,51.161115,0 71.548862,51.161112,0 71.548862,51.161112,0 71.548862,51.161112,0 71.548709,51.160935,0 71.548709,51.160935,0 71.548709,51.160935,0 71.548566,51.160938,0 71.548571,51.161028,0</coordinates></LinearRing></outerBoundaryIs></Polygon></MultiGeometry></Placemark>
<Placemark><name>5. C00151</name><styleUrl>#pending</styleUrl><description><![CDATA[по снимку не разобрать — нужен выезд<br/>Площадь 1300 м², возник 2020-08<br/>Ущерб ~3,2 млн ₸<br/><a href="https://hakathon-lyart.vercel.app/map.html?object=C00151">карточка на карте</a>]]></description><MultiGeometry><Point><coordinates>71.518572,51.166039,0</coordinates></Point><Polygon><outerBoundaryIs><LinearRing><coordinates>71.518237,51.166092,0 71.518242,51.166182,0 71.518385,51.166179,0 71.518390,51.166269,0 71.518676,51.166263,0 71.518671,51.166173,0 71.518814,51.166170,0 71.518804,51.165990,0 71.518513,51.165907,0 71.518508,51.165817,0 71.518227,51.165913,0 71.518380,51.166089,0 71.518237,51.166092,0</coordinates></LinearRing></outerBoundaryIs></Polygon></MultiGeometry></Placemark>
<Placemark><name>6. C00177</name><styleUrl>#pending</styleUrl><description><![CDATA[по снимку не разобрать — нужен выезд<br/>Площадь 1100 м², возник 2020-08<br/>Ущерб ~2,7 млн ₸<br/><a href="https://hakathon-lyart.vercel.app/map.html?object=C00177">карточка на карте</a>]]></description><MultiGeometry><Point><coordinates>71.519614,51.166422,0</coordinates></Point><Polygon><outerBoundaryIs><LinearRing><coordinates>71.519262,51.166520,0 71.519415,51.166697,0 71.519695,51.166601,0 71.519691,51.166511,0 71.519833,51.166508,0 71.519824,51.166328,0 71.519681,51.166331,0 71.519676,51.166241,0 71.519395,51.166337,0 71.519405,51.166517,0 71.519262,51.166520,0</coordinates></LinearRing></outerBoundaryIs></Polygon></MultiGeometry></Placemark>
<Placemark><name>7. C00219</name><styleUrl>#pending</styleUrl><description><![CDATA[по снимку не разобрать — нужен выезд<br/>Площадь 800 м², возник 2024-08<br/>Ущерб ~2,0 млн ₸<br/><a href="https://hakathon-lyart.vercel.app/map.html?object=C00219">карточка на карте</a>]]></description><MultiGeometry><Point><coordinates>71.547510,51.160180,0</coordinates></Point><Polygon><outerBoundaryIs><LinearRing><coordinates>71.547374,51.160065,0 71.547379,51.160155,0 71.547236,51.160158,0 71.547236,51.160158,0 71.547236,51.160158,0 71.547274,51.160202,0 71.547389,51.160334,0 71.547674,51.160328,0 71.547669,51.160238,0 71.547812,51.160235,0 71.547678,51.160080,0 71.547660,51.160059,0 71.547660,51.160059,0 71.547660,51.160059,0 71.547374,51.160065,0</coordinates></LinearRing></outerBoundaryIs></Polygon></MultiGeometry></Placemark>
<Placemark><name>8. C00221</name><styleUrl>#dump</styleUrl><description><![CDATA[опознан по снимку как свалка<br/>Площадь 800 м², возник 2019-04<br/>Ущерб ~2,0 млн ₸<br/><a href="https://hakathon-lyart.vercel.app/map.html?object=C00221">карточка на карте</a>]]></description><MultiGeometry><Point><coordinates>71.548433,51.170205,0</coordinates></Point><Polygon><outerBoundaryIs><LinearRing><coordinates>71.548372,51.170386,0 71.548653,51.170290,0 71.548643,51.170111,0 71.548500,51.170114,0 71.548495,51.170024,0 71.548214,51.170120,0 71.548224,51.170300,0 71.548367,51.170296,0 71.548372,51.170386,0</coordinates></LinearRing></outerBoundaryIs></Polygon></MultiGeometry></Placemark>
<Placemark><name>9. C00225</name><styleUrl>#pending</styleUrl><description><![CDATA[по снимку не разобрать — нужен выезд<br/>Площадь 800 м², возник 2023-08<br/>Ущерб ~2,0 млн ₸<br/><a href="https://hakathon-lyart.vercel.app/map.html?object=C00225">карточка на карте</a>]]></description><MultiGeometry><Point><coordinates>71.552255,51.162926,0</coordinates></Point><Polygon><outerBoundaryIs><LinearRing><coordinates>71.552262,51.163106,0 71.552543,51.163010,0 71.552538,51.162920,0 71.552247,51.162837,0 71.552242,51.162747,0 71.552099,51.162750,0 71.551966,51.162933,0 71.552257,51.163016,0 71.552262,51.163106,0</coordinates></LinearRing></outerBoundaryIs></Polygon></MultiGeometry></Placemark>
<Placemark><name>10. C00317</name><styleUrl>#dump</styleUrl><description><![CDATA[опознан по снимку как свалка<br/>Площадь 500 м², возник 2024-07<br/>Ущерб ~1,2 млн ₸<br/><a href="https://hakathon-lyart.vercel.app/map.html?object=C00317">карточка на карте</a>]]></description><MultiGeometry><Point><coordinates>71.549847,51.161871,0</coordinates></Point><Polygon><outerBoundaryIs><LinearRing><coordinates>71.549616,51.161815,0 71.549644,51.161847,0 71.549769,51.161991,0 71.550049,51.161895,0 71.549915,51.161740,0 71.549897,51.161719,0 71.549897,51.161719,0 71.549897,51.161719,0 71.549616,51.161815,0 71.549616,51.161815,0 71.549616,51.161815,0</coordinates></LinearRing></outerBoundaryIs></Polygon></MultiGeometry></Placemark>
<Placemark><name>11. C00318</name><styleUrl>#dump</styleUrl><description><![CDATA[опознан по снимку как свалка<br/>Площадь 500 м², возник 2024-05<br/>Ущерб ~1,2 млн ₸<br/><a href="https://hakathon-lyart.vercel.app/map.html?object=C00318">карточка на карте</a>]]></description><MultiGeometry><Point><coordinates>71.557030,51.247951,0</coordinates></Point><Polygon><outerBoundaryIs><LinearRing><coordinates>71.557247,51.247991,0 71.557094,51.247815,0 71.556813,51.247911,0 71.556966,51.248088,0 71.557247,51.247991,0</coordinates></LinearRing></outerBoundaryIs></Polygon></MultiGeometry></Placemark>
<Placemark><name>12. C00323</name><styleUrl>#pending</styleUrl><description><![CDATA[по снимку не разобрать — нужен выезд<br/>Площадь 500 м², возник 2024-06<br/>Ущерб ~1,2 млн ₸<br/><a href="https://hakathon-lyart.vercel.app/map.html?object=C00323">карточка на карте</a>]]></description><MultiGeometry><Point><coordinates>71.549889,51.168059,0</coordinates></Point><Polygon><outerBoundaryIs><LinearRing><coordinates>71.549825,51.168196,0 71.550106,51.168100,0 71.549953,51.167923,0 71.549672,51.168019,0 71.549825,51.168196,0</coordinates></LinearRing></outerBoundaryIs></Polygon></MultiGeometry></Placemark>
<Placemark><name>13. C00331</name><styleUrl>#dump</styleUrl><description><![CDATA[опознан по снимку как свалка<br/>Площадь 500 м², возник 2019-07<br/>Ущерб ~1,2 млн ₸<br/><a href="https://hakathon-lyart.vercel.app/map.html?object=C00331">карточка на карте</a>]]></description><MultiGeometry><Point><coordinates>71.483748,51.207078,0</coordinates></Point><Polygon><outerBoundaryIs><LinearRing><coordinates>71.483965,51.207119,0 71.483812,51.206942,0 71.483531,51.207038,0 71.483683,51.207215,0 71.483965,51.207119,0</coordinates></LinearRing></outerBoundaryIs></Polygon></MultiGeometry></Placemark>
<Placemark><name>14. C00332</name><styleUrl>#dump</styleUrl><description><![CDATA[опознан по снимку как свалка<br/>Площадь 500 м², возник 2024-06<br/>Ущерб ~1,2 млн ₸<br/><a href="https://hakathon-lyart.vercel.app/map.html?object=C00332">карточка на карте</a>]]></description><MultiGeometry><Point><coordinates>71.500086,51.199445,0</coordinates></Point><Polygon><outerBoundaryIs><LinearRing><coordinates>71.500303,51.199486,0 71.500150,51.199309,0 71.499869,51.199405,0 71.500022,51.199582,0 71.500303,51.199486,0</coordinates></LinearRing></outerBoundaryIs></Polygon></MultiGeometry></Placemark>
<Placemark><name>15. C00334</name><styleUrl>#pending</styleUrl><description><![CDATA[по снимку не разобрать — нужен выезд<br/>Площадь 500 м², возник 2021-10<br/>Ущерб ~1,2 млн ₸<br/><a href="https://hakathon-lyart.vercel.app/map.html?object=C00334">карточка на карте</a>]]></description><MultiGeometry><Point><coordinates>71.610461,51.166543,0</coordinates></Point><Polygon><outerBoundaryIs><LinearRing><coordinates>71.610678,51.166583,0 71.610525,51.166407,0 71.610244,51.166503,0 71.610397,51.166679,0 71.610678,51.166583,0</coordinates></LinearRing></outerBoundaryIs></Polygon></MultiGeometry></Placemark>
</Document></kml>