{
"type": "FeatureCollection",
"name": "candidates",
"crs": { "type": "name", "properties": { "name": "urn:ogc:def:crs:OGC:1.3:CRS84" } },
"features": [
{ "type": "Feature", "properties": { "candidate_id": "D00015", "area_m2": 8444.1383244331319, "break_date": "2022-04-21", "probability": 0.88692107850089996, "ndvi_drop": 0.24851899871553426, "bsi_rise": 0.21017925096893009, "pmli_response": 0.14883079324663934, "sar_incoherence": 0.14267277269344397, "thermal_anomaly": 2.1928274682599191, "verify_providers": 2, "verify_texture": 0.36270209095164385, "damage_p10": 5284154.9396457346, "damage_p50": 21010072.246152505, "damage_p90": 42214396.825389259, "mass_t": 2779.1922382348976, "co2e_t": 518.35153427107991, "penalty_kzt": 432500.0, "penalty_article": "ст. 344, ч. 2-1", "is_demo": true }, "geometry": { "type": "Polygon", "coordinates": [ [ [ 70.915442, 50.925301 ], [ 70.915406, 50.924677 ], [ 70.914881, 50.924491 ], [ 70.914499, 50.924599 ], [ 70.914515, 50.924559 ], [ 70.914357, 50.924626 ], [ 70.914413, 50.925894 ], [ 70.915442, 50.925301 ] ] ] } },
{ "type": "Feature", "properties": { "candidate_id": "D00000", "area_m2": 23554.400575079548, "break_date": "2024-05-07", "probability": 0.8260214875522387, "ndvi_drop": 0.34335248032044186, "bsi_rise": 0.16227352589655991, "pmli_response": 0.062866887113475711, "sar_incoherence": 0.29717996742676556, "thermal_anomaly": 2.3323091855533487, "verify_providers": 0, "verify_texture": 0.61577993158553412, "damage_p10": 15905855.251784241, "damage_p50": 58147884.495138124, "damage_p90": 115669556.97227252, "mass_t": 7625.5038036984879, "co2e_t": 1421.8833584130473, "penalty_kzt": 432500.0, "penalty_article": "ст. 344, ч. 2-1", "is_demo": true }, "geometry": { "type": "Polygon", "coordinates": [ [ [ 71.784389, 51.112576 ], [ 71.784753, 51.111991 ], [ 71.783533, 51.111493 ], [ 71.783372, 51.11133 ], [ 71.7827, 51.111138 ], [ 71.781874, 51.112498 ], [ 71.784671, 51.112978 ], [ 71.784389, 51.112576 ] ] ] } },
{ "type": "Feature", "properties": { "candidate_id": "D00011", "area_m2": 3602.4928761782735, "break_date": "2020-03-21", "probability": 0.8152840044215055, "ndvi_drop": 0.1993017826131081, "bsi_rise": 0.20911751712088308, "pmli_response": 0.072373957699793628, "sar_incoherence": 0.52568706402009791, "thermal_anomaly": 2.5508689887312599, "verify_providers": 3, "verify_texture": 0.87771630837642434, "damage_p10": 2317515.4185429234, "damage_p50": 8925155.8725714609, "damage_p90": 18049542.311600663, "mass_t": 1166.4464136615563, "co2e_t": 217.06106349809943, "penalty_kzt": 432500.0, "penalty_article": "ст. 344, ч. 2-1", "is_demo": true }, "geometry": { "type": "Polygon", "coordinates": [ [ [ 71.074293, 51.148202 ], [ 71.073753, 51.146979 ], [ 71.073396, 51.147974 ], [ 71.073588, 51.147909 ], [ 71.073681, 51.147846 ], [ 71.073781, 51.147962 ], [ 71.073851, 51.148171 ], [ 71.074293, 51.148202 ] ] ] } },
{ "type": "Feature", "properties": { "candidate_id": "D00007", "area_m2": 3216.1645440309076, "break_date": "2024-03-16", "probability": 0.80258982638454246, "ndvi_drop": 0.29931085124695583, "bsi_rise": 0.1457915283333211, "pmli_response": 0.066893076225521569, "sar_incoherence": 0.50041367379569057, "thermal_anomaly": 2.3381154370039261, "verify_providers": 3, "verify_texture": 0.79073165933969392, "damage_p10": 2150161.6803756999, "damage_p50": 7988904.4253313541, "damage_p90": 16343978.826088015, "mass_t": 1048.5507056494221, "co2e_t": 195.10220739766925, "penalty_kzt": 432500.0, "penalty_article": "ст. 344, ч. 2-1", "is_demo": true }, "geometry": { "type": "Polygon", "coordinates": [ [ [ 71.601236, 51.346582 ], [ 71.601257, 51.346516 ], [ 71.600934, 51.346213 ], [ 71.600231, 51.346582 ], [ 71.600672, 51.34689 ], [ 71.600916, 51.346803 ], [ 71.601254, 51.346865 ], [ 71.601236, 51.346582 ] ] ] } },
{ "type": "Feature", "properties": { "candidate_id": "D00003", "area_m2": 12817.254743507368, "break_date": "2021-12-25", "probability": 0.75744796897760613, "ndvi_drop": 0.21398293919940739, "bsi_rise": 0.15972812210661852, "pmli_response": 0.041999117803576749, "sar_incoherence": 0.29914503861491559, "thermal_anomaly": 2.6403081374573958, "verify_providers": 2, "verify_texture": 0.23908232382537731, "damage_p10": 8174021.6456736065, "damage_p50": 31274757.222429924, "damage_p90": 64031088.452082589, "mass_t": 4186.4015085886422, "co2e_t": 776.83916949210447, "penalty_kzt": 432500.0, "penalty_article": "ст. 344, ч. 2-1", "is_demo": true }, "geometry": { "type": "Polygon", "coordinates": [ [ [ 70.935007, 50.945514 ], [ 70.933828, 50.944051 ], [ 70.932742, 50.945019 ], [ 70.933588, 50.945138 ], [ 70.933642, 50.945181 ], [ 70.933629, 50.945473 ], [ 70.935135, 50.945703 ], [ 70.935007, 50.945514 ] ] ] } },
{ "type": "Feature", "properties": { "candidate_id": "D00010", "area_m2": 4946.6387045093034, "break_date": "2022-06-28", "probability": 0.75677170815025085, "ndvi_drop": 0.27915375072614812, "bsi_rise": 0.24357459864965786, "pmli_response": 0.0, "sar_incoherence": 0.31447246032354736, "thermal_anomaly": 1.976512421372447, "verify_providers": 3, "verify_texture": 0.60327891814367796, "damage_p10": 3153421.5377834016, "damage_p50": 11967673.608132936, "damage_p90": 24798486.794757329, "mass_t": 1618.9916559826779, "co2e_t": 300.29507008697885, "penalty_kzt": 432500.0, "penalty_article": "ст. 344, ч. 2-1", "is_demo": true }, "geometry": { "type": "Polygon", "coordinates": [ [ [ 71.115461, 51.01944 ], [ 71.115446, 51.018955 ], [ 71.114324, 51.019157 ], [ 71.114295, 51.019311 ], [ 71.114433, 51.019628 ], [ 71.114809, 51.019562 ], [ 71.115753, 51.019665 ], [ 71.115461, 51.01944 ] ] ] } },
{ "type": "Feature", "properties": { "candidate_id": "D00005", "area_m2": 19049.277615171173, "break_date": "2020-06-20", "probability": 0.74552242574285044, "ndvi_drop": 0.19890337401497854, "bsi_rise": 0.12174416188838141, "pmli_response": 0.050990957418569877, "sar_incoherence": 0.66927045986527456, "thermal_anomaly": 0.97861332077561392, "verify_providers": 2, "verify_texture": 0.7009280566725421, "damage_p10": 12438271.99363246, "damage_p50": 48554969.712664455, "damage_p90": 98460918.025788978, "mass_t": 6313.8061005671316, "co2e_t": 1169.7921758003104, "penalty_kzt": 432500.0, "penalty_article": "ст. 344, ч. 2-1", "is_demo": true }, "geometry": { "type": "Polygon", "coordinates": [ [ [ 71.465039, 51.146856 ], [ 71.462042, 51.146422 ], [ 71.461477, 51.146632 ], [ 71.462163, 51.146863 ], [ 71.461744, 51.147132 ], [ 71.462677, 51.147328 ], [ 71.463023, 51.147968 ], [ 71.465039, 51.146856 ] ] ] } },
{ "type": "Feature", "properties": { "candidate_id": "D00004", "area_m2": 866.71582962616549, "break_date": "2020-01-21", "probability": 0.73808893469051384, "ndvi_drop": 0.30810905680886425, "bsi_rise": 0.15888886514506134, "pmli_response": 0.021167748219893687, "sar_incoherence": 0.19766313781886874, "thermal_anomaly": 2.1135138474501955, "verify_providers": 2, "verify_texture": 0.70086278222098863, "damage_p10": 528121.78051215434, "damage_p50": 2103017.8044715934, "damage_p90": 4345973.6322120633, "mass_t": 281.28823733666377, "co2e_t": 52.296380945858616, "penalty_kzt": 432500.0, "penalty_article": "ст. 344, ч. 2-1", "is_demo": true }, "geometry": { "type": "Polygon", "coordinates": [ [ [ 71.262673, 51.197642 ], [ 71.26319, 51.19737 ], [ 71.26299, 51.197316 ], [ 71.262883, 51.197275 ], [ 71.262668, 51.197293 ], [ 71.262747, 51.197405 ], [ 71.26256, 51.197403 ], [ 71.262673, 51.197642 ] ] ] } },
{ "type": "Feature", "properties": { "candidate_id": "D00014", "area_m2": 27367.413268697852, "break_date": "2019-10-28", "probability": 0.72661681321197535, "ndvi_drop": 0.25922331517011249, "bsi_rise": 0.17983880483284787, "pmli_response": 0.11282113901669676, "sar_incoherence": 0.29093882416631417, "thermal_anomaly": 2.3211672557321128, "verify_providers": 2, "verify_texture": 0.50214901745523177, "damage_p10": 19066548.960757565, "damage_p50": 68451620.395231307, "damage_p90": 132983076.98670611, "mass_t": 8957.846266332901, "co2e_t": 1654.0490318694447, "penalty_kzt": 432500.0, "penalty_article": "ст. 344, ч. 2-1", "is_demo": true }, "geometry": { "type": "Polygon", "coordinates": [ [ [ 70.932241, 51.138249 ], [ 70.932073, 51.137022 ], [ 70.931083, 51.136345 ], [ 70.929878, 51.137679 ], [ 70.929181, 51.137922 ], [ 70.930434, 51.138184 ], [ 70.930314, 51.138582 ], [ 70.932241, 51.138249 ] ] ] } },
{ "type": "Feature", "properties": { "candidate_id": "D00016", "area_m2": 18776.106031807209, "break_date": "2021-08-31", "probability": 0.71977727698964911, "ndvi_drop": 0.39461883174322521, "bsi_rise": 0.17346905675663896, "pmli_response": 0.086407623732683014, "sar_incoherence": 0.51143602361995777, "thermal_anomaly": 0.95433896723265288, "verify_providers": 3, "verify_texture": 0.60995266707128593, "damage_p10": 11056994.263621787, "damage_p50": 46147336.699136503, "damage_p90": 93031785.652136505, "mass_t": 6114.9720838818994, "co2e_t": 1136.002931177135, "penalty_kzt": 432500.0, "penalty_article": "ст. 344, ч. 2-1", "is_demo": true }, "geometry": { "type": "Polygon", "coordinates": [ [ [ 70.975215, 51.364293 ], [ 70.975461, 51.363748 ], [ 70.974389, 51.363017 ], [ 70.973265, 51.363285 ], [ 70.973157, 51.364056 ], [ 70.974831, 51.3648 ], [ 70.97455, 51.364348 ], [ 70.975215, 51.364293 ] ] ] } },
{ "type": "Feature", "properties": { "candidate_id": "D00009", "area_m2": 9640.8217928980848, "break_date": "2023-04-09", "probability": 0.68794748958648144, "ndvi_drop": 0.27932575966010798, "bsi_rise": 0.18758782041996019, "pmli_response": 0.082126213903114698, "sar_incoherence": 0.35001265896371209, "thermal_anomaly": 1.0784419664571527, "verify_providers": 0, "verify_texture": 0.60696896710119552, "damage_p10": 6251846.0418121312, "damage_p50": 23675728.555393867, "damage_p90": 48280820.371321566, "mass_t": 3154.8630153646236, "co2e_t": 587.38772567565798, "penalty_kzt": 432500.0, "penalty_article": "ст. 344, ч. 2-1", "is_demo": true }, "geometry": { "type": "Polygon", "coordinates": [ [ [ 71.190045, 51.018175 ], [ 71.189549, 51.017525 ], [ 71.189549, 51.01746 ], [ 71.188464, 51.01766 ], [ 71.188871, 51.018572 ], [ 71.189796, 51.018408 ], [ 71.190563, 51.018581 ], [ 71.190045, 51.018175 ] ] ] } },
{ "type": "Feature", "properties": { "candidate_id": "D00008", "area_m2": 1188.7329474098344, "break_date": "2020-07-05", "probability": 0.68656795406376825, "ndvi_drop": 0.4026625176355304, "bsi_rise": 0.14352802863169634, "pmli_response": 0.044925568873296469, "sar_incoherence": 0.33586061686211643, "thermal_anomaly": 0.042271608643368763, "verify_providers": 3, "verify_texture": 0.28593185582962177, "damage_p10": 789154.6501593159, "damage_p50": 2972963.2992029111, "damage_p90": 6034765.460084076, "mass_t": 389.1896032859749, "co2e_t": 72.214336134976179, "penalty_kzt": 432500.0, "penalty_article": "ст. 344, ч. 2-1", "is_demo": true }, "geometry": { "type": "Polygon", "coordinates": [ [ [ 71.250343, 51.380544 ], [ 71.250388, 51.380324 ], [ 71.249846, 51.380285 ], [ 71.249832, 51.380318 ], [ 71.249624, 51.380308 ], [ 71.24973, 51.380485 ], [ 71.250259, 51.380572 ], [ 71.250343, 51.380544 ] ] ] } },
{ "type": "Feature", "properties": { "candidate_id": "D00018", "area_m2": 5274.0176777956613, "break_date": "2020-06-10", "probability": 0.66640333119984974, "ndvi_drop": 0.29609305628781885, "bsi_rise": 0.14202138569752554, "pmli_response": 0.098603208380012256, "sar_incoherence": 0.11585624705083356, "thermal_anomaly": 1.5026766373023646, "verify_providers": 2, "verify_texture": 0.56790594514283299, "damage_p10": 3215792.4435077868, "damage_p50": 12945526.999563772, "damage_p90": 26653753.054104418, "mass_t": 1719.6159887855488, "co2e_t": 323.27001929682956, "penalty_kzt": 432500.0, "penalty_article": "ст. 344, ч. 2-1", "is_demo": true }, "geometry": { "type": "Polygon", "coordinates": [ [ [ 71.279991, 51.333783 ], [ 71.279591, 51.333271 ], [ 71.278846, 51.334086 ], [ 71.279052, 51.334364 ], [ 71.279818, 51.334265 ], [ 71.279677, 51.333857 ], [ 71.280251, 51.333912 ], [ 71.279991, 51.333783 ] ] ] } },
{ "type": "Feature", "properties": { "candidate_id": "D00006", "area_m2": 5780.8993117458003, "break_date": "2021-01-08", "probability": 0.62256802951698798, "ndvi_drop": 0.19653185809676998, "bsi_rise": 0.10159204003771675, "pmli_response": 0.14603711728924998, "sar_incoherence": 0.60854985811749451, "thermal_anomaly": 1.6204807867173994, "verify_providers": 2, "verify_texture": 0.48102628219552224, "damage_p10": 3820496.4321984001, "damage_p50": 14511788.795117885, "damage_p90": 29830703.025211684, "mass_t": 1885.0850399641099, "co2e_t": 355.0068117052665, "penalty_kzt": 432500.0, "penalty_article": "ст. 344, ч. 2-1", "is_demo": true }, "geometry": { "type": "Polygon", "coordinates": [ [ [ 71.286146, 51.394678 ], [ 71.286107, 51.394502 ], [ 71.285815, 51.394394 ], [ 71.284629, 51.394516 ], [ 71.284512, 51.394774 ], [ 71.285296, 51.395087 ], [ 71.285729, 51.394962 ], [ 71.286146, 51.394678 ] ] ] } },
{ "type": "Feature", "properties": { "candidate_id": "D00001", "area_m2": 12367.695975439277, "break_date": "2021-08-15", "probability": 0.61640730364975582, "ndvi_drop": 0.31073481378431372, "bsi_rise": 0.1733789534744446, "pmli_response": 0.091564775947599375, "sar_incoherence": 0.44469323387578102, "thermal_anomaly": 0.3428441801443336, "verify_providers": 3, "verify_texture": 0.49245918105568581, "damage_p10": 8478226.2771153171, "damage_p50": 30640658.046763837, "damage_p90": 62922194.307615206, "mass_t": 4046.5678031029765, "co2e_t": 753.15314493110714, "penalty_kzt": 432500.0, "penalty_article": "ст. 344, ч. 2-1", "is_demo": true }, "geometry": { "type": "Polygon", "coordinates": [ [ [ 71.09601, 51.25596 ], [ 71.096859, 51.255298 ], [ 71.094281, 51.255647 ], [ 71.093911, 51.255725 ], [ 71.094272, 51.256266 ], [ 71.09481, 51.256197 ], [ 71.095886, 51.256342 ], [ 71.09601, 51.25596 ] ] ] } },
{ "type": "Feature", "properties": { "candidate_id": "D00002", "area_m2": 1711.2560693369849, "break_date": "2019-03-18", "probability": 0.61355065518501117, "ndvi_drop": 0.24436484121980795, "bsi_rise": 0.17792698455383571, "pmli_response": 0.10502361575869347, "sar_incoherence": 0.30359801904196421, "thermal_anomaly": 2.2567752375574113, "verify_providers": 0, "verify_texture": 0.43085333060800279, "damage_p10": 1076538.2780880474, "damage_p50": 4244303.6529224077, "damage_p90": 8581125.6907027233, "mass_t": 559.0867367735043, "co2e_t": 104.79849333999792, "penalty_kzt": 432500.0, "penalty_article": "ст. 344, ч. 2-1", "is_demo": true }, "geometry": { "type": "Polygon", "coordinates": [ [ [ 71.434631, 51.188766 ], [ 71.43429, 51.188196 ], [ 71.434029, 51.188339 ], [ 71.434006, 51.188407 ], [ 71.433842, 51.188469 ], [ 71.433976, 51.188516 ], [ 71.433869, 51.188624 ], [ 71.434631, 51.188766 ] ] ] } },
{ "type": "Feature", "properties": { "candidate_id": "D00013", "area_m2": 6314.8441640138881, "break_date": "2022-09-09", "probability": 0.60714926169559313, "ndvi_drop": 0.30324699007944561, "bsi_rise": 0.28638265501730426, "pmli_response": 0.07179353244535823, "sar_incoherence": 0.049471656190022917, "thermal_anomaly": 3.404254361517141, "verify_providers": 1, "verify_texture": 0.46761410242777146, "damage_p10": 4035020.0141384988, "damage_p50": 15386603.961142939, "damage_p90": 32303617.425936472, "mass_t": 2066.0131899229386, "co2e_t": 383.45999109687205, "penalty_kzt": 432500.0, "penalty_article": "ст. 344, ч. 2-1", "is_demo": true }, "geometry": { "type": "Polygon", "coordinates": [ [ [ 71.791744, 51.235223 ], [ 71.79182, 51.234407 ], [ 71.791175, 51.234145 ], [ 71.790667, 51.235116 ], [ 71.790832, 51.235248 ], [ 71.791077, 51.235157 ], [ 71.791531, 51.235099 ], [ 71.791744, 51.235223 ] ] ] } },
{ "type": "Feature", "properties": { "candidate_id": "D00019", "area_m2": 6161.1900478686293, "break_date": "2024-07-14", "probability": 0.5566336130054601, "ndvi_drop": 0.30824825415906731, "bsi_rise": 0.14306143411911285, "pmli_response": 0.12591250642934254, "sar_incoherence": 0.0, "thermal_anomaly": 1.0134342248958315, "verify_providers": 0, "verify_texture": 0.24643573277786168, "damage_p10": 4113301.5180306779, "damage_p50": 15403262.993071273, "damage_p90": 31088896.769426029, "mass_t": 2033.4251995124218, "co2e_t": 374.64162182893585, "penalty_kzt": 432500.0, "penalty_article": "ст. 344, ч. 2-1", "is_demo": true }, "geometry": { "type": "Polygon", "coordinates": [ [ [ 70.923989, 51.008417 ], [ 70.924552, 51.008003 ], [ 70.924524, 51.008 ], [ 70.924208, 51.007427 ], [ 70.923935, 51.007705 ], [ 70.922791, 51.007877 ], [ 70.924105, 51.008547 ], [ 70.923989, 51.008417 ] ] ] } },
{ "type": "Feature", "properties": { "candidate_id": "D00012", "area_m2": 1756.3109138233524, "break_date": "2023-02-03", "probability": 0.50412792229339609, "ndvi_drop": 0.23453379448853368, "bsi_rise": 0.19954531613966775, "pmli_response": 0.016736224021842314, "sar_incoherence": 0.57139235720802628, "thermal_anomaly": 2.1683566127006584, "verify_providers": 2, "verify_texture": 0.70238511745181276, "damage_p10": 1130904.8015271993, "damage_p50": 4263812.3507344481, "damage_p90": 8584558.5389648974, "mass_t": 570.31503358132022, "co2e_t": 105.39036813790457, "penalty_kzt": 432500.0, "penalty_article": "ст. 344, ч. 2-1", "is_demo": true }, "geometry": { "type": "Polygon", "coordinates": [ [ [ 71.022789, 51.390721 ], [ 71.02322, 51.39033 ], [ 71.023245, 51.390299 ], [ 71.022927, 51.390116 ], [ 71.022873, 51.390202 ], [ 71.022876, 51.390097 ], [ 71.02252, 51.390305 ], [ 71.022789, 51.390721 ] ] ] } },
{ "type": "Feature", "properties": { "candidate_id": "D00017", "area_m2": 6390.9119541396212, "break_date": "2021-01-23", "probability": 0.35, "ndvi_drop": 0.3559928703963704, "bsi_rise": 0.17457600890866043, "pmli_response": 0.10323108381319188, "sar_incoherence": 0.34148252084109626, "thermal_anomaly": 1.6295924188357955, "verify_providers": 2, "verify_texture": 0.40969316858942451, "damage_p10": 3971468.3579855016, "damage_p50": 16012108.732627079, "damage_p90": 32832293.020443544, "mass_t": 2112.112798405632, "co2e_t": 387.45068367532497, "penalty_kzt": 432500.0, "penalty_article": "ст. 344, ч. 2-1", "is_demo": true }, "geometry": { "type": "Polygon", "coordinates": [ [ [ 71.627407, 51.101593 ], [ 71.625699, 51.101179 ], [ 71.625887, 51.101577 ], [ 71.625789, 51.101789 ], [ 71.626224, 51.10202 ], [ 71.626742, 51.102073 ], [ 71.626767, 51.102013 ], [ 71.627407, 51.101593 ] ] ] } }
]
}
